Name,FullName,Postcode,LocalAuthority,City,Latitude,Longitude
Greggs,Buckingham Greggs,MK18 1RY,Aylesbury Vale,,51.9886054992676,-0.98617601394653
Greggs,Greggs,HP20 1BA,Aylesbury Vale,,51.819628,-0.809111
Greggs,Greggs,HP20 1LL,Aylesbury Vale,,51.8169403076172,-0.78985100984573
Greggs,Greggs,HP20 1TN,Aylesbury Vale,,51.81674,-0.812437
Greggs,Greggs,HP6 5DR,Chiltern,,51.677544,-0.606349
Greggs,Greggs,HP5 1BW,Chiltern,,51.705228,-0.61233
Greggs,Greggs,UB9 4DF,South Buckinghamshire,,51.5643081665039,-0.4996699988842
Greggs,Greggs,HP9 1UB,South Buckinghamshire,,51.600026,-0.668413
Greggs,Greggs,HP9 2SE,South Buckinghamshire,,51.587438,-0.627873
Greggs,Greggs,HP11 2DF,Wycombe,,51.6302337646484,-0.75239700078964
Greggs,Greggs,HP12 4RG,Wycombe,,51.618616,-0.784017
Greggs,Maple Rise Service Station And Greggs,SL7 1HH,Wycombe,,51.576798,-0.770428
Greggs,Greggs,CB1 1EW,Cambridge City,,52.206549,0.130417
Greggs,Greggs,PE13 1AR,Fenland,,52.665785,0.161722
Greggs,Greggs,PE15 8TP,Fenland,,52.550435,0.088565
Greggs,Greggs,PE19 2AR,Huntingdonshire,,52.227948,-0.270953
Greggs,Greggs,PE19 8ET,Huntingdonshire,,52.2124481201172,-0.2856459915638
Greggs,Greggs,PE28 0TD,Huntingdonshire,,52.3413352966309,-0.34159100055695
Greggs,Greggs,,Huntingdonshire,,0.0,0.0
Greggs,Greggs,,Huntingdonshire,,0.0,0.0
Greggs,Greggs Eurogarages,PE28 9HY,Huntingdonshire,,52.2936477661133,-0.06031199917197
Greggs,Greggs the Bakers,PE29 3LG,Huntingdonshire,,52.330303,-0.182768
Greggs,Greggs the Bakers,PE27 5AD,Huntingdonshire,,52.323619,-0.073016
Greggs,Greggs,CA12 5BD,Allerdale,,54.600384,-3.136707
Greggs,Greggs,CA14 2AD,Allerdale,,54.643845,-3.547869
Greggs,Greggs,CA14 3DZ,Allerdale,,54.64352,-3.545904
Greggs,Greggs,CA7 9DT,Allerdale,,54.825044,-3.160554
Greggs,Greggs,CA14 3YD,Allerdale,,54.635285,-3.562108
Greggs,Greggs,CA13 9LU,Allerdale,,54.663838,-3.365924
Greggs,Greggs,CA15 6BU,Allerdale,,54.713745,-3.496897
Greggs,Greggs,CA13 0QN,Allerdale,,54.654267,-3.3714
Greggs,Greggs,LA15 8DL,Barrow-in-Furness,,54.156437,-3.180827
Greggs,Greggs,LA14 1PX,Barrow-in-Furness,,54.113744,-3.225706
Greggs,Greggs,LA14 1JH,Barrow-in-Furness,,54.11288,-3.224961
Greggs,Greggs,CA3 8NX,Carlisle City,,54.895213,-2.934468
Greggs,Greggs,CA3 8LP,Carlisle City,,54.892748,-2.933725
Greggs,Greggs,CA3 8PX,Carlisle City,,54.896174,-2.935785
Greggs,Greggs,CA2 5EN,Carlisle City,,54.886687,-2.940132
Greggs,Greggs,CA3 0ET,Carlisle City,,54.925809,-2.947801
Greggs,Greggs,CA22 2AD,Copeland,,54.481683,-3.528323
Greggs,Greggs,CA28 7JH,Copeland,,54.548197,-3.590117
Greggs,Greggs Plc,CA25 5AB,Copeland,,54.521752,-3.516795
Greggs,Greggs Plc,CA28 7JB,Copeland,,54.546882,-3.590947
Greggs,Greggs,CA11 7SR,Eden,,54.664374,-2.75293
Greggs,Greggs,CA4 0NT,Eden,,54.797964,-2.872197
Greggs,Greggs in Forecourt,CA4 0NT,Eden,,54.797964,-2.872196
Greggs,Greggs Penrith,CA11 0DT,Eden,,54.649447,-2.770136
Greggs,Moto Southwaite Greggs,CA4 0NT,Eden,,54.797964,-2.872196
Greggs,Greggs,LA9 4ND,South Lakeland,,54.3279119,-2.7475384
Greggs,Greggs,LA23 1EA,South Lakeland,,54.378495,-2.905862
Greggs,Greggs,LA22 0AD,South Lakeland,,54.43033,-2.962162
Greggs,Greggs,LA12 7AY,South Lakeland,,54.196015,-3.09578
Greggs,Greggs,LA9 4DA,South Lakeland,,54.327311,-2.747204
Greggs,Greggs,LA6 1JF,South Lakeland,,54.17909,-2.733833
Greggs,Greggs,LA9 4LR,South Lakeland,,54.329031,-2.746574
Greggs,Greggs,DE5 3AP,Amber Valley,,53.050054,-1.404473
Greggs,Greggs,DE56 1PL,Amber Valley,,53.02308,-1.481982
Greggs,Greggs,DE55 1HJ,Amber Valley,,53.087445,-1.394835
Greggs,Greggs,,Amber Valley,,53.0962800666761,-1.38034761663867
Greggs,Greggs Plc,DE55 7BQ,Amber Valley,,53.096886,-1.388132
Greggs,Greggs Plc,NG16 4AA,Amber Valley,,53.020021,-1.323834
Greggs,Greggs,S40 1PA,Chesterfield,,53.234918,-1.429299
Greggs,Greggs,S40 1RR,Chesterfield,,53.236011,-1.426423
Greggs,Greggs,S40 1RR,Chesterfield,,53.235923975233,-1.42702764366798
Greggs,Greggs,S41 7EW,Chesterfield,,53.25147,-1.426111
Greggs,Spar & Greggs,S41 8QW,Chesterfield,,53.255853,-1.446169
Greggs,Greggs,DE7 8AH,Erewash,,52.972742,-1.309055
Greggs,Greggs,NG10 1HZ,Erewash,,52.896623,-1.268926
Greggs,Greggs,SK13 8AZ,High Peak,,53.443301,-1.952312
Greggs,Greggs,SK17 6DE,High Peak,,53.258867,-1.912088
Greggs,Greggs Eurogarages Heath,S44 5SW,North East Derbyshire,,53.2009429931641,-1.34081196784973
Greggs,Greggs,DE11 8HY,South Derbyshire,,52.773277,-1.556174
Greggs,Greggs PLC,DE11 7EA,South Derbyshire,,52.7677018,-1.5324078
Greggs,Greggs,DE6 1HA,Derbyshire Dales,,53.0065040588379,-1.71358895301819
Greggs,Greggs Plc,DE4 3AT,Derbyshire Dales,,53.138467,-1.555995
Greggs,Greggs,EX8 1RW,East Devon,,50.620471,-3.412869
Greggs,Greggs,EX14 1DP,East Devon,,50.7920834,-3.2083318
Greggs,Greggs,EX4 1DG,Exeter City,,50.717588,-3.54066
Greggs,Greggs,EX2 7HF,Exeter City,,50.716676,-3.463555
Greggs,Greggs,EX2 7LA,Exeter City,,50.718325,-3.466185
Greggs,Greggs (Part Unit),EX2 8QH,Exeter City,,50.707226,-3.529911
Greggs,Greggs Plc,EX4 3EB,Exeter City,,50.723394,-3.532095
Greggs,Greggs Plc,EX4 6NN,Exeter City,,50.726384,-3.525647
Greggs,Greggs South West,EX16 6AA,Mid Devon,,50.903507,-3.486432
Greggs,Greggs,EX31 1JB,North Devon,,51.0819511413574,-4.06169891357422
Greggs,Greggs,EX31 1LP,North Devon,,51.0856094360352,-4.07704019546509
Greggs,Greggs,TQ14 8HH,Teignbridge,,50.546355,-3.495029
Greggs,Greggs PLC,TQ12 2RX,Teignbridge,,50.5302100001238,-3.6111999992073
Greggs,Sourton Cross Greggs,EX20 4LY,West Devon,,50.7077713012695,-4.05979490280151
Greggs,Greggs,BH24 2NR,Dorset,,50.8292118,-1.8380786
Greggs,Greggs,BH21 7PQ,Dorset,,50.81379,-1.913205
Greggs,Greggs,BH19 1AE,Dorset,,50.6095733642578,-1.95785701274872
Greggs,Greggs,DT4 8PN,Dorset,,50.6092987060547,-2.45394802093506
Greggs,Greggs,DT1 1DQ,Dorset,,50.7146322,-2.4370637
Greggs,Ivy Cross Greggs,SP7 8DS,Dorset,,51.0105438232422,-2.19211888313293
Greggs,Weymouth Greggs,DT4 7BJ,Dorset,,50.614875793457,-2.45537304878235
Greggs,Greggs,BN21 3NW,Eastbourne,,50.769214630127,0.28507098555565
Greggs,Greggs,TN34 1QY,Hastings,,50.85664,0.581848
Greggs,Greggs,BN10 8NP,Lewes,,50.790283,0.005541
Greggs,Hellingly Greggs,BN27 4DP,Wealden,,50.879471,0.231066
Greggs,Greggs Bakers,SS14 1DT,Basildon,,51.569729,0.457022
Greggs,Greggs Bakers,SS14 1BZ,Basildon,,51.569052,0.458848
Greggs,Greggs Bakers,SS14 1HE,Basildon,,51.570355,0.461487
Greggs,Greggs Bakers,SS15 5TE,Basildon,,51.574739,0.422842
Greggs,Greggs Bakers,CM12 9AH,Basildon,,51.623984,0.4159
Greggs,Greggs Bakers,SS12 9AZ,Basildon,,51.612853,0.520988
Greggs,Greggs Bakers,SS13 3DU,Basildon,,51.566324,0.504039
Greggs,Greggs Plc,SS14 3HZ,Basildon,,51.590785,0.479527
Greggs,Greggs,CM7 1RB,Braintree,,51.878614,0.549911
Greggs,Greggs,CM8 1AH,Braintree,,51.799069,0.638786
Greggs,Greggs,CO5 9EL,Braintree,,51.852554,0.730834
Greggs,Greggs,CM14 4AN,Brentwood,,51.619841,0.301203
Greggs,Greggs Bakers,CM14 4RG,Brentwood,,51.621328,0.304717
Greggs,Greggs,SS7 5HA,Castle Point,,51.553662,0.559044
Greggs,Greggs,SS8 7AE,Castle Point,,51.52236,0.592032
Greggs,Greggs,CM2 7QS,Chelmsford,,51.717714,0.50119
Greggs,Greggs,CM2 9LG,Chelmsford,,51.716602,0.475126
Greggs,Greggs,CM1 1GZ,Chelmsford,,51.736092,0.466473
Greggs,Greggs,CM1 1XD,Chelmsford,,51.733915,0.471684
Greggs,Greggs,CO4 0NB,Colchester,,51.9030208,0.9291679
Greggs,Greggs,CO3 0LX,Colchester,,51.878547668457,0.84487998485565
Greggs,Greggs,CO1 1LJ,Colchester,,51.88839,0.902563
Greggs,Greggs,CO1 1DA,Colchester,,51.889333,0.897115
Greggs,Greggs,IG10 3FT,Epping Forest,,0.0,0.0
Greggs,Greggs Bakers,EN9 1EE,Epping Forest,,51.686947,-0.001475
Greggs,Greggs Bakers,CM16 4BP,Epping Forest,,51.700023,0.112082
Greggs,Greggs Bakers,IG10 3SP,Epping Forest,,51.648257,0.084118
Greggs,Greggs,CM20 1HX,Harlow,,51.770554,0.094312
Greggs,Greggs,CM20 2DG,Harlow,,51.7859,0.118136
Greggs,Greggs,CM20 1AQ,Harlow,,51.767662,0.094121
Greggs,Greggs,CM18 6PA,Harlow,,51.757673,0.112641
Greggs,Greggs,CM9 5PN,Maldon,,51.731335,0.677187
Greggs,Greggs,SS4 1AJ,Rochford,,51.582459,0.705697
Greggs,Greggs,SS6 7EJ,Rochford,,51.585874,0.605694
Greggs,Greggs,CO15 1TD,Tendring,,51.789285,1.152908
Greggs,Greggs,CO13 9PT,Tendring,,51.833359,1.245314
Greggs,Greggs,GL50 3HH,Cheltenham,,51.901747,-2.075327
Greggs,Greggs,GL51 7SE,Cheltenham,,51.902623,-2.115182
Greggs,Greggs,GL51 9RR,Cheltenham,,51.918574,-2.103998
Greggs,Greggs - EG Diner,GL7 5DS,Cotswold,,51.720287322998,-1.95349705219269
Greggs,Marsh Greggs,GL56 0DS,Cotswold,,51.984066,-1.705661
Greggs,Greggs,GL15 5RA,Forest of Dean,,51.727204,-2.529437
Greggs,Greggs,GL1 1TP,Gloucester City,,51.864326,-2.246888
Greggs,Greggs,GL1 1RW,Gloucester City,,51.864576,-2.243258
Greggs,Greggs,GL5 1AR,Stroud,,0.0,0.0
Greggs,Greggs PLC,GL20 5AL,Tewkesbury,,51.993686,-2.157477
Greggs,Greggs Plc,GL3 4BJ,Tewkesbury,,51.847017,-2.171524
Greggs,Greggs Plc,GL20 8HB,Tewkesbury,,52.000491,-2.129432
Greggs,Greggs,RG21 7JT,Basingstoke and Deane,,51.265148,-1.086536
Greggs,Greggs,RG21 7NE,Basingstoke and Deane,,51.263296,-1.08653
Greggs,Greggs,RG21 7LD,Basingstoke and Deane,,51.2662,-1.0876319
Greggs,Greggs,RG24 8BQ,Basingstoke and Deane,,51.284206,-1.059746
Greggs,Greggs,RG21 6AH,Basingstoke and Deane,,0.0,0.0
Greggs,Greggs,RG21 7BE,Basingstoke and Deane,,51.2655715942383,-1.08548200130463
Greggs,"Euro Garages, including Subway and Greggs",GU31 4AT,East Hampshire,,51.010353,-0.927738
Greggs,Greggs,GU32 3DY,East Hampshire,,51.005349,-0.938087
Greggs,Greggs,GU34 1ET,East Hampshire,,51.148349,-0.976699
Greggs,GREGGS,SO30 4FN,Eastleigh,,50.9139712,-1.3031183
Greggs,Greggs,SO50 5RE,Eastleigh,,50.9674266,-1.3518145
Greggs,Greggs,PO16 0AD,Fareham,,50.852711,-1.179496
Greggs,Greggs,PO12 1DS,Gosport,,50.794793,-1.119627
Greggs,Greggs,GU51 3BN,Hart,,51.280777,-0.842409
Greggs,Greggs Plc,GU46 7LR,Hart,,51.341972,-0.828334
Greggs,Greggs,PO9 1EH,Havant,,50.8514653,-0.9825407
Greggs,Greggs,PO7 7DS,Havant,,50.8796895,-1.0312146
Greggs,Greggs,PO9 5AH,Havant,,50.8676377,-0.9841415
Greggs,Hayling Island Service Station / Greggs,PO110LG,Havant,,50.823055267334,-0.98214900493622
Greggs,GREGGS,SO40 3BX,New Forest,,50.919309,-1.488459
Greggs,GREGGS,SO41 9AF,New Forest,,50.758354,-1.540984
Greggs,GREGGS,BH25 6QA,New Forest,,50.7471084594727,-1.66420805454254
Greggs,Greggs,GU14 7SB,Rushmoor,,51.291682,-0.756272
Greggs,Greggs Plc,GU11 1DX,Rushmoor,,51.249323,-0.764264
Greggs,Greatbridge Greggs,SO51 0HB,Test Valley,,51.001613,-1.500196
Greggs,Greggs,SP10 1LP,Test Valley,,51.208269,-1.479225
Greggs,Greggs,SP10 5NP,Test Valley,,51.2122288,-1.4550342
Greggs,Weyhill East Greggs,SP11 0DB,Test Valley,,0.0,0.0
Greggs,Weyhill West Greggs,SP11 8FH,Test Valley,,0.0,0.0
Greggs,Greggs,SO23 9JX,Winchester City,,51.061714,-1.311858
Greggs,Greggs,B61 8EX,Bromsgrove,,52.33482,-2.06036
Greggs,Greggs,B45 9JW,Bromsgrove,,52.393674,-2.018852
Greggs,Greggs,B60 3DR,Bromsgrove,,52.319268,-2.058652
Greggs,Greggs At Moto  (North),B32 4AR,Bromsgrove,,52.42878,-2.017162
Greggs,Greggs At Moto  (South),B32 4AR,Bromsgrove,,52.42878,-2.017162
Greggs,Greggs At Moto (South),B32 4AR,Bromsgrove,,52.42878,-2.017162
Greggs,Greggs,WR14 1BD,Malvern Hills,,52.132147,-2.305811
Greggs,Greggs,B97 4EY,Redditch,,52.306152,-1.943459
Greggs,Greggs,B98 0GZ,Redditch,,52.285307,-1.90647
Greggs,Greggs,B98 9HA,Redditch,,0.0,0.0
Greggs,Greggs,WR1 2RF,Worcester City,,52.191981,-2.219838
Greggs,Greggs,WR1 2QA,Worcester City,,52.192806,-2.220895
Greggs,Greggs,WR4 9FB,Worcester City,,52.2132949829102,-2.17833399772644
Greggs,Greggs At Nunnery Park Service Station,WR4 0SX,Worcester City,,0.0,0.0
Greggs,Greggs,WR11 4RR,Wychavon,,52.092263,-1.946502
Greggs,Greggs Hartlebury,DY11 7XP,Wychavon,,52.324589,-2.2239
Greggs,Greggs,DY10 2AZ,Wyre Forest,,52.388307,-2.248967
Greggs,Greggs,DY11 7PT,Wyre Forest,,52.3621253967285,-2.26689600944519
Greggs,Greggs,DY10 1AA,Wyre Forest,,52.387098,-2.250488
Greggs,Greggs Bakers,EN8 8NR,Broxbourne,,51.701315,-0.034923
Greggs,Greggs Bakery,EN8 7AN,Broxbourne,,51.686203,-0.033553
Greggs,Euro Foods (Greggs),HP4 2NB,Dacorum,,51.756939,-0.55263
Greggs,Greggs,HP1 1BA,Dacorum,,51.751936,-0.472791
Greggs,Greggs,HP1 1BL,Dacorum,,51.748728,-0.472204
Greggs,Greggs,HP2 7DP,Dacorum,,0.0,0.0
Greggs,Greggs,CM23 3AT,East Hertfordshire,,51.869181,0.160047
Greggs,Greggs,SG12 9BA,East Hertfordshire,,51.81065,-0.031027
Greggs,Greggs,SG14 1BG,East Hertfordshire,,51.796883,-0.077223
Greggs,Greggs,EN6 1AE,Hertsmere,,51.6982095,-0.1912772
Greggs,Greggs Plc,WD6 1AH,Hertsmere,,51.6569038,-0.274028
Greggs,Greggs,SG7 5TR,North Hertfordshire,,52.014526,-0.202498
Greggs,Greggs Bakers,SG6 3DD,North Hertfordshire,,51.977854,-0.228341
Greggs,Greggs The Bakers,SG5 1AT,North Hertfordshire,,51.948363,-0.27822
Greggs,Greggs Plc,AL1 3DH,St Albans City,,51.752749,-0.339101
Greggs,Greggs,SG1 2GX,Stevenage,,0.0,0.0
Greggs,Greggs At Esso,SG2 8EH,Stevenage,,51.887994,-0.186131
Greggs,Greggs Bakers,SG1 1BP,Stevenage,,51.901893,-0.202361
Greggs,Greggs,WD19 7DT,Three Rivers,,51.6281089782715,-0.38616201281548
Greggs,Sandy Lodge - Greggs,HA6 2HU,Three Rivers,,51.631706237793,-0.41582900285721
Greggs,Greggs,WD17 2BJ,Watford,,51.654261,-0.394804
Greggs,Greggs,WD17 1LQ,Watford,,51.657094,-0.398144
Greggs,Sheepcot Greggs,WD25 7LW,Watford,,51.691967010498,-0.39802101254463
Greggs,Greggs,AL8 6PD,Welwyn Hatfield,,51.801927,-0.205745
Greggs,Greggs,TN24 8SD,Ashford,,51.149773,0.870857
Greggs,Greggs,CT1 1HJ,Canterbury City,,51.2887021,1.0969737
Greggs,Greggs,CT1 2SS,Canterbury City,,51.2773955,1.0820011
Greggs,Greggs,DA1 2HR,Dartford,,51.444022,0.21608
Greggs,Greggs,DA1 1BZ,Dartford,,51.444433,0.218114
Greggs,Greggs,CT16 1QD,Dover,,51.1258888244629,1.31710195541382
Greggs,Greggs Bakers,CT16 1BB,Dover,,51.127325,1.309543
Greggs,Greggs,DA11 0HF,Gravesham,,51.441261,0.362036
Greggs,Greggs,DA12 3BH,Gravesham,,51.4008979797363,0.40103200078011
Greggs,Greggs,ME15 7LW,Maidstone,,51.252804,0.545624
Greggs,Greggs,ME14 1DJ,Maidstone,,51.274073,0.523658
Greggs,Greggs,ME15 9JD,Maidstone,,51.239525,0.556912
Greggs,Greggs,ME15 6AR,Maidstone,,51.272654,0.525258
Greggs,Greggs,TN8 6FU,Sevenoaks,,0.0,0.0
Greggs,Elijah Retail - Greggs,ME13 9LN,Swale,,51.2887191772461,0.99285000562668
Greggs,Greggs,ME12 1NL,Swale,,51.440658,0.761101
Greggs,Greggs,ME10 4AJ,Swale,,51.340073,0.734903
Greggs,Greggs,ME10 1QB,Swale,,51.343835,0.714692
Greggs,Greggs,CT9 1JW,Thanet,,51.386473,1.381024
Greggs,Greggs,CT10 2BF,Thanet,,51.359503,1.392929
Greggs,Greggs,TN9 1EJ,Tonbridge and Malling,,51.193059,0.272259
Greggs,Greggs,TN9 1AP,Tonbridge and Malling,,51.195061,0.274261
Greggs,Greggs,TN12 6EN,Tunbridge Wells,,51.180781,0.388759
Greggs,Greggs,TN1 2AA,Tunbridge Wells,,51.134789,0.263965
Greggs,Greggs,TN2 3FB,Tunbridge Wells,,51.155828,0.287804
Greggs,Greggs Wood Pharmacy,TN2 3JG,Tunbridge Wells,,51.145532,0.287724
Greggs,Greggs Wood Post Office,TN2 3JG,Tunbridge Wells,,51.145532,0.287724
Greggs,Greggswood Stores Premier,TN2 3JG,Tunbridge Wells,,51.146167755127,0.28782698512077
Greggs,Greggs,BB11 1TQ,Burnley,,53.7876981,-2.2504927
Greggs,Greggs,BB11 1BA,Burnley,,53.7897018,-2.242035
Greggs,Greggs,BB11 1BA,Burnley,,53.7901468,-2.2442233
Greggs,Greggs,PR7 1DE,Chorley,,53.6529912,-2.630309
Greggs,Greggs PLC,PR7 1BN,Chorley,,53.652771,-2.631368
Greggs,"Greggs Rivington North Services, M61",BL6 5UZ,Chorley,,53.6004829406738,-2.57307505607605
Greggs,"Greggs Rivington South Services, M61",BL6 5UZ,Chorley,,53.6004829406738,-2.57307505607605
Greggs,Greggs,FY8 5EW,Fylde,,53.736976,-2.960818
Greggs,Mill Farm Greggs,PR4 3HD,Fylde,,53.798365,-2.88763
Greggs,Westholme Service Station (Greggs),PR4 3HE,Fylde,,53.809152,-2.892384
Greggs,Greggs @ Frontier Park,BB1 3AL,Hyndburn,,0.0,0.0
Greggs,Greggs Plc,BB5 1ET,Hyndburn,,53.753477,-2.365048
Greggs,Greggs,LA1 1LY,Lancaster City,,54.049104,-2.799539
Greggs,Greggs,LA1 1UA,Lancaster City,,54.04813,-2.80007
Greggs,Greggs,LA4 4SZ,Lancaster City,,54.061586,-2.852229
Greggs,Greggs,LA5 9JX,Lancaster City,,54.128894,-2.768464
Greggs,Greggs,LA4 5DH,Lancaster City,,53.8612060546875,-2.56927990913391
Greggs,Greggs,LA1 4YW,Lancaster City,,54.010477,-2.786926
Greggs,Ryelands Greggs,LA1 2LL,Lancaster City,,54.05817,-2.801363
Greggs,Greggs Plc,BB9 8ET,Pendle,,53.8448104858398,-2.19794201850891
Greggs,Greggs,PR1 2NJ,Preston,,53.757776,-2.704609
Greggs,Greggs,PR1 2EN,Preston,,53.76018,-2.701025
Greggs,Greggs,PR1 2NR,Preston,,53.758819,-2.701532
Greggs,Greggs,PR1 2NQ,Preston,,53.758934,-2.701807
Greggs,Greggs,PR2 2DZ,Preston,,53.771918,-2.723767
Greggs,Greggs,PR2 9BQ,Preston,,53.7851905822754,-2.68234491348267
Greggs,Greggs,PR2 9HD,Preston,,53.7923583984375,-2.70556902885437
Greggs,Greggs,PR1 6QY,Preston,,53.773936,-2.676764
Greggs,Greggs,BB7 9WF,Ribble Valley,,53.8404006958008,-2.39549994468689
Greggs,Greggs,BB4 5QN,Rossendale,,53.705701,-2.325748
Greggs,Greggs Plc,BB4 8DY,Rossendale,,53.7027657,-2.2849769
Greggs,Greggs Euro Garage,PR5 0UX,South Ribble,,53.7640113830566,-2.59749388694763
Greggs,Dingle Bell Greggs,L39 1LZ,West Lancashire,,53.576749,-2.894534
Greggs,Greggs,WN8 8TL,West Lancashire,,53.550654,-2.808734
Greggs,GREGGS,LA2 9DU,Wyre,,53.9616546630859,-2.76059794425964
Greggs,Greggs,LE8 4DJ,Blaby,,52.5748787,-1.1640388
Greggs,Greggs,LE11 2FF,Charnwood,,0.0,0.0
Greggs,Greggs plc,LE11 3EP,Charnwood,,52.771258,-1.207972
Greggs,Greggs plc,LE11 3EA,Charnwood,,52.771708,-1.206763
Greggs,Greggs plc,LE7 2HD,Charnwood,,52.698585,-1.074078
Greggs,Greggs,LE16 7DR,Harborough,,52.477425,-0.918811
Greggs,Browns Blue Greggs,LE67 9PU,Hinckley and Bosworth,,52.700831,-1.305468
Greggs,Greggs,LE10 1DB,Hinckley and Bosworth,,52.541657,-1.371621
Greggs,Greggs,LE10 1RU,Hinckley and Bosworth,,52.542369,-1.371906
Greggs,Greggs,LE13 1XD,Melton,,52.764404,-0.886213
Greggs,Greggs,LE65 1AF,North West Leicestershire,,52.746937,-1.472564
Greggs,Greggs,LE67 3XB,North West Leicestershire,,52.72381,-1.371879
Greggs,Greggs,DE74 2TN,North West Leicestershire,,52.821722,-1.308172
Greggs,Greggs,DE74 2TN,North West Leicestershire,,52.821722,-1.308172
Greggs,Greggs,DE74 2SA,North West Leicestershire,,52.826133,-1.329637
Greggs,Greggs,LE65 1JP,North West Leicestershire,,52.751517,-1.445856
Greggs,Greggs,LE18 1NR,Oadby and Wigston,,52.58693,-1.105732
Greggs,Greggs,LE2 5BF,Oadby and Wigston,,52.599665,-1.084035
Greggs,Greggs,PE21 7NE,Boston,,0.0,0.0
Greggs,Greggs East,PE21 6QX,Boston,,52.978653,-0.021653
Greggs,Sutterton Greggs,PE20 2LG,Boston,,52.888488,-0.080477
Greggs,Greggs,LN11 9PB,East Lindsey,,53.366055,-0.004695
Greggs,Greggs,LN12 1AX,East Lindsey,,53.34124,0.260531
Greggs,Greggs,PE25 3NG,East Lindsey,,53.143236,0.337356
Greggs,Greggs,LN5 7AL,Lincoln City,,53.227865,-0.541285
Greggs,Greggs,LN1 3AP,Lincoln City,,53.2363624572754,-0.53859800100327
Greggs,Greggs,LN5 9TR,Lincoln City,,53.191377,-0.556923
Greggs,Greggs,NG34 7RR,North Kesteven,,52.99719,-0.409718
Greggs,Lincoln Greggs,LN6 9AJ,North Kesteven,,53.177509,-0.626442
Greggs,Greggs PLC,PE11 1SA,South Holland,,52.787234,-0.152398
Greggs,Greggs Plc,PE12 6FY,South Holland,,0.0,0.0
Greggs,Greggs,NG31 6EE,South Kesteven,,52.909837,-0.642761
Greggs,Greggs,DN21 2NA,West Lindsey,,53.398868,-0.772678
Greggs,Greggs,,Breckland,,52.4107066,0.7346778
Greggs,Greggs,IP24 1QN,Breckland,,52.4228973388672,0.72738599777222
Greggs,Greggs Plc,NR19 1EA,Breckland,,52.680701,0.941718
Greggs,Greggs PLC,IP24 2AN,Breckland,,52.41371,0.748987
Greggs,Greggs,NR31 6RB,Great Yarmouth,,52.579098,1.727636
Greggs,Greggs,NR30 1LS,Great Yarmouth,,52.607266,1.726603
Greggs,Greggs PLC,NR31 0LZ,Great Yarmouth,,52.598296,1.7111491
Greggs,Greggs,PE30 4HX,King's Lynn and West Norfolk,,52.741159,0.411648
Greggs,Greggs,PE38 9JZ,King's Lynn and West Norfolk,,52.6021385192871,0.37699100375175
Greggs,Greggs,PE30 1DP,King's Lynn and West Norfolk,,52.754150390625,0.39719000458717
Greggs,Greggs,PE30 1BL,King's Lynn and West Norfolk,,52.7543525695801,0.3950229883194
Greggs,South Marston Greggs,,King's Lynn and West Norfolk,,52.6482300002526,0.17371499971987
Greggs,Greggs,NR21 9AP,North Norfolk,,52.829682,0.849274
Greggs,Greggs,NR2 1PX,Norwich City,,52.627463,1.294414
Greggs,Greggs,NR6 6NF,Norwich City,,52.6652111,1.2796868
Greggs,Greggs,NR4 6EF,Norwich City,,0.0,0.0
Greggs,Greggs,NR3 1DY,Norwich City,,52.636328,1.295154
Greggs,Greggs,NR2 4TN,Norwich City,,52.6388647,1.2820895
Greggs,Greggs,NR2 1LA,Norwich City,,52.629455,1.295864
Greggs,Greggs,NR1 3QR,Norwich City,,52.624594,1.291508
Greggs,Greggs,NR4 7EH,Norwich City,,52.621913,1.262298
Greggs,Greggs,IP22 4AD,South Norfolk,,52.375102,1.109164
Greggs,Greggs,NR9 3AU,South Norfolk,,52.604092,1.219138
Greggs,Greggs,NR5 0JT,South Norfolk,,52.6538314819336,1.18061697483063
Greggs,Greggs,NN17 4BH,Corby,,52.508458,-0.705433
Greggs,Greggs (Spar),NN17 3HT,Corby,,52.4951133728027,-0.64180701971054
Greggs,Greggs PLC,NN17 1NJ,Corby,,52.4879677,-0.7014411
Greggs,Greggs,NN11 4DR,Daventry,,52.2573125,-1.1614762
Greggs,Eurogarages Greggs,NN14 4UR,East Northamptonshire,,52.3925323486328,-0.52437597513199
Greggs,Greggs,NN10 0PJ,East Northamptonshire,,52.290912,-0.59768
Greggs,Greggs PLC,NN10 6FT,East Northamptonshire,,0.0,0.0
Greggs,Greggs,NN14 1RW,Kettering,,52.3806343078613,-0.73088800907135
Greggs,Greggs,NN141UD,Kettering,,52.4241142272949,-0.72796601057053
Greggs,Greggs,NN14 1SS,Kettering,,52.414476,-0.790067
Greggs,Greggs,NN16 8JL,Kettering,,52.401214,-0.727431
Greggs,Greggs of the Midlands plc,NN16 8SY,Kettering,,52.399734,-0.728562
Greggs,Greggs Plc,NN16 8PZ,Kettering,,52.412397,-0.739048
Greggs,Greggs,NN1 2QL,Northampton,,52.237485,-0.896489
Greggs,Greggs,NN1 2AW,Northampton,,52.238797,-0.892575
Greggs,Greggs,NN2 7SJ,Northampton,,52.264258,-0.900147
Greggs,Greggs,NN2 6JD,Northampton,,52.250992,-0.890002
Greggs,Greggs,NN5 5JR,Northampton,,52.2343292236328,-0.91579401493072
Greggs,Greggs,NN4 7PY,Northampton,,52.2171516418457,-0.86846399307251
Greggs,Greggs plc,NN3 8JZ,Northampton,,52.257213,-0.836765
Greggs,Greggs,NN8 1EX,Wellingborough,,52.301563,-0.692218
Greggs,Greggs,BD23 1JP,Craven,,53.9615231,-2.0171141
Greggs,Greggs,BD23 1UD,Craven,,53.9658489,-2.0424952
Greggs,Greggs,DL7 8LF,Hambleton,,54.339285,-1.43473
Greggs,Greggs Of Yorkshire,YO7 1LH,Hambleton,,54.232341,-1.341737
Greggs,Greggs,HG1 1RP,Harrogate,,53.992896,-1.539808
Greggs,Greggs,HG4 1BW,Harrogate,,54.136887,-1.523598
Greggs,Greggs,HG1 1PB,Harrogate,,53.993433,-1.541709
Greggs,Greggs,DL10 4PX,Richmondshire,,54.403684,-1.73812
Greggs,Greggs,DL9 3EN,Richmondshire,,54.374784,-1.722956
Greggs,Greggs,DL10 6PQ,Richmondshire,,54.4436378479004,-1.66749000549316
Greggs,Greggs,YO11 1UH,Scarborough,,54.281457,-0.401892
Greggs,Greggs,YO11 1UE,Scarborough,,54.280897,-0.402375
Greggs,Greggs,YO8 4ET,Selby,,53.783924,-1.07185
Greggs,Greggs,NG17 1BN,Ashfield,,53.1249465942383,-1.26218998432159
Greggs,Greggs Plc,NG17 1BX,Ashfield,,53.1088104248047,-1.29957294464111
Greggs,Greggs PLC,NG15 7AX,Ashfield,,53.038452,-1.203757
Greggs,Greggs,,Bassetlaw,,0.0,0.0
Greggs,Greggs Bakery,DN22 6BU,Bassetlaw,,53.321883,-0.942524
Greggs,Greggs Bakery,S80 1DP,Bassetlaw,,53.304593,-1.124053
Greggs,Greggs Bakery,S80 1JN,Bassetlaw,,53.305533,-1.124725
Greggs,Greggs,NG9 2JP,Broxtowe,,52.927361,-1.214425
Greggs,Greggs,NG16 2PB,Broxtowe,,52.996274,-1.256413
Greggs,Greggs,NG9 7AA,Broxtowe,,52.929279,-1.275815
Greggs,Greggs,NG16 3AL,Broxtowe,,53.017943,-1.304786
Greggs,Greggs,,Broxtowe,,0.0,0.0
Greggs,Greggs,NG14 6FP,Gedling,,53.037198,-1.081906
Greggs,Greggs,NG5 7EA,Gedling,,53.002447,-1.128913
Greggs,Greggs Plc,NG3 5QS,Gedling,,52.984827,-1.12024
Greggs,Greggs Plc,NG4 2PE,Gedling,,52.958749,-1.063784
Greggs,Greggs,NG18 1RY,Mansfield,,53.144895,-1.197156
Greggs,Greggs,NG18 1BE,Mansfield,,53.141846,-1.1982
Greggs,Greggs Plc,NG19 9BG,Mansfield,,53.1559600830078,-1.1878570318222
Greggs,Greggs,NG24 1AW,Newark and Sherwood,,53.076184,-0.811608
Greggs,Greggs,NG24 6HU,Newark and Sherwood,,53.1289812175129,-0.81257941055398
Greggs,Greggs,NG2 5GR,Rushcliffe,,52.931993,-1.127159
Greggs,Greggs,NG13 8BD,Rushcliffe,,52.952183,-0.953422
Greggs,Bicester Greggs,OX26 1BT,Cherwell,,51.8935928344727,-1.16193199157715
Greggs,Greggs,OX16 5EE,Cherwell,,52.061208,-1.336475
Greggs,Greggs,OX15 4AB,Cherwell,,52.041222,-1.325545
Greggs,Greggs,OX27 7RD,Cherwell,,51.950024,-1.19861
Greggs,Greggs PLC,OX16 5UN,Cherwell,,52.06316,-1.335046
Greggs,Greggs PLC,OX5 2EH,Cherwell,,51.823273,-1.288874
Greggs,Greggs,OX3 9AX,Oxford City,,51.759877,-1.211441
Greggs,Greggs,OX4 3XH,Oxford City,,51.731758,-1.217722
Greggs,Greggs,OX11 7LG,South Oxfordshire,,51.606953,-1.2389
Greggs,Greggs,OX10 0EG,South Oxfordshire,,51.599851,-1.124265
Greggs,Thame Greggs,OX9 3SB,South Oxfordshire,,51.757049,-0.978331
Greggs,Acorn Greggs,SN7 7BP,Vale of White Horse,,51.652188,-1.583158
Greggs,Greggs,OX14 3QY,Vale of White Horse,,51.670417,-1.282231
Greggs,Greggs,OX12 8AS,Vale of White Horse,,51.588123,-1.426961
Greggs,Marcham Road Greggs,OX14 1TZ,Vale of White Horse,,51.668261,-1.304937
Greggs,Greggs,OX28 6JH,West Oxfordshire,,51.786355,-1.485705
Greggs,Greggs,BA4 5SB,Mendip,,51.1890640258789,-2.54993391036987
Greggs,Greggs plc,BA11 1BS,Mendip,,51.2319412231445,-2.32162690162659
Greggs,Greggs plc,BA5 2AE,Mendip,,51.2084664,-2.6472093
Greggs,Greggs Plc,BA16 0EN,Mendip,,51.1263318,-2.7410606
Greggs,Greggs plc,BA11 4NZ,Mendip,,51.201517,-2.376992
Greggs,Greggs,TA6 3DW,Sedgemoor,,51.128606,-3.004495
Greggs,Greggs,TA8 1PA,Sedgemoor,,51.23546,-2.997267
Greggs,Greggs,TA6 4BH,Sedgemoor,,51.139181,-2.996148
Greggs,Greggs & Treforest,BA20 1LE,South Somerset,,50.941614,-2.631434
Greggs,Greggs South Petherton,TA13 5JG,South Somerset,,50.940581,-2.806299
Greggs,Podimore Greggs,BA22 8JG,South Somerset,,51.0235824584961,-2.64921593666077
Greggs,Greggs,TA24 5UG,Somerset West and Taunton,,51.20569,-3.477303
Greggs,Greggs,TA1 3TP,Somerset West and Taunton,,51.014,-3.101961
Greggs,Greggs  Plc,TA1 1LH,Somerset West and Taunton,,51.015829,-3.103559
Greggs,Greggs Plc,TA21 8AA,Somerset West and Taunton,,50.978081,-3.228387
Greggs,Greggs,WS11 1BU,Cannock Chase,,52.689708,-2.031099
Greggs,Greggs,WS15 2BZ,Cannock Chase,,52.759903,-1.935557
Greggs,Greggs,ST14 7HT,East Staffordshire,,52.899351,-1.865244
Greggs,Greggs,DE14 1DF,East Staffordshire,,52.802051,-1.631885
Greggs,Greggs Derby Road Services,ST14 5AA,East Staffordshire,,52.911099,-1.864746
Greggs,Greggs,WS13 6LH,Lichfield,,52.68291,-1.828781
Greggs,Greggs,WS13 8NQ,Lichfield,,52.7098922729492,-1.77763402462006
Greggs,Greggs The Bakers,WS13 6NF,Lichfield,,52.683067,-1.825748
Greggs,GREGGS,ST5 1AN,Newcastle-Under-Lyme,,53.0113983154297,-2.22529697418213
Greggs,GREGGS,ST7 1UP,Newcastle-Under-Lyme,,53.0617599487305,-2.25047993659973
Greggs,Greggs,WV8 1BX,South Staffordshire,,52.629938,-2.201641
Greggs,Greggs,WV11 2AT,South Staffordshire,,52.643176,-2.057387
Greggs,Greggs (Northbound Forecourt),WV11 2AT,South Staffordshire,,52.64457,-2.055304
Greggs,Greggs (Southbound),WV11 2AT,South Staffordshire,,52.642951965332,-2.05386900901794
Greggs,Greggs,ST16 2JE,Stafford,,52.8068481,-2.1176346
Greggs,Greggs,ST15 0EU,Stafford,,52.884407043457,-2.17052793502808
Greggs,Greggs,ST16 3AL,Stafford,,52.805179,-2.1129568
Greggs,Greggs,B79 7LG,Tamworth,,52.632663,-1.693398
Greggs,Greggs,B78 3JD,Tamworth,,52.6271781921387,-1.70050799846649
Greggs,Greggs (Middle Entry),B79 7NJ,Tamworth,,52.633404,-1.695106
Greggs,Greggs,CO10 2EA,Babergh,,52.038683,0.730225
Greggs,Greggs,IP7 5AL,Babergh,,52.043575,0.954179
Greggs,Greggs,IP28 6AE,West Suffolk,,52.338397,0.533405
Greggs,Greggs Newmarket East,,West Suffolk,,52.255213,0.392576
Greggs,Greggs plc,IP33 1UN,West Suffolk,,52.244971,0.714338
Greggs,Greggs plc,IP33 1DY,West Suffolk,,52.2462,0.711718
Greggs,Greggs plc,CB9 8AR,West Suffolk,,52.080988,0.440434
Greggs,Greggs plc,CB8 8LB,West Suffolk,,52.2450485229492,0.40785399079323
Greggs,Greggs,IP4 1ED,Ipswich,,52.056747,1.1564
Greggs,Greggs,IP4 5QN,Ipswich,,52.0614875,1.198232
Greggs,Greggs,IP3 9BG,Ipswich,,52.04779,1.18376
Greggs,Greggs Plc,IP1 5NX,Ipswich,,52.0820185,1.1171471
Greggs,Greggs The Bakers,IP1 3DX,Ipswich,,52.05859,1.150052
Greggs,Greggs,IP14 1AH,Mid Suffolk,,52.187161,0.997069
Greggs,Greggs,IP6 8LP,Mid Suffolk,,52.147541,1.079885
Greggs,Greggs,NR34 9HD,East Suffolk,,52.45745,1.562413
Greggs,Greggs,IP11 7BB,East Suffolk,,51.962075,1.350937
Greggs,Greggs,NR32 1LS,East Suffolk,,52.47589,1.751835
Greggs,Greggs,IP5 3RH,East Suffolk,,52.061206817627,1.28081595897675
Greggs,Greggs,NR33 7NR,East Suffolk,,0.0,0.0
Greggs,Greggs,KT11 3DB,Elmbridge,,51.30426,-0.40581
Greggs,Greggs,KT19 8AJ,Epsom and Ewell,,51.33389,-0.266426
Greggs,Greggs,GU1 1NH,Guildford,,51.2609367370605,-0.57389402389526
Greggs,Greggs Plc,GU1 4TE,Guildford,,51.236181,-0.574746
Greggs,Hogs Back Greggs,GU10 1EU,Guildford,,51.2260093688965,-0.72589200735092
Greggs,Greggs,KT22 8AN,Mole Valley,,51.29517,-0.328499
Greggs,Greggs The Bakers,RH1 1QH,Reigate and Banstead,,51.240691,-0.169116
Greggs,Greggs,TW18 3AY,Runnymede,,51.4333686828613,-0.53066802024841
Greggs,Greggs of Twickenham,KT15 2AD,Runnymede,,51.371309,-0.488592
Greggs,Greggs South East,TW20 9EY,Runnymede,,51.432585,-0.545683
Greggs,Greggs,TW18 4DY,Spelthorne,,51.434233,-0.511463
Greggs,Greggs,TW15 2UD,Spelthorne,,51.433818,-0.465325
Greggs,Greggs,TW16 7AB,Spelthorne,,51.419767,-0.420333
Greggs,EUROGARAGES FRIMLEY ROAD SPAR/GREGGS,GU15 2QL,Surrey Heath,,51.324272,-0.754774
Greggs,GREGGS,GU15 3SP,Surrey Heath,,51.337349,-0.745749
Greggs,Greggs,CR3 6RT,Tandridge,,51.281566,-0.077267
Greggs,Greggs,GU7 1ED,Waverley,,51.186021,-0.610692
Greggs,Haslemere Greggs,GU27 1LE,Waverley,,51.087653,-0.733594
Greggs,Manor Weald Greggs,GU8 5EL,Waverley,,51.1738700866699,-0.65049600601196
Greggs,Greggs,GU21 6XX,Woking,,51.3195304870605,-0.55930602550507
Greggs,Greggs,CV9 1BB,North Warwickshire,,52.577321,-1.547219
Greggs,Greggs,B77 5PS,North Warwickshire,,52.608154296875,-1.64105701446533
Greggs,Greggs,CV12 8ND,Nuneaton and Bedworth,,52.480067,-1.473242
Greggs,Greggs,CV11 5JW,Nuneaton and Bedworth,,52.522464,-1.469051
Greggs,Greggs,CV11 4HD,Nuneaton and Bedworth,,52.523626,-1.467607
Greggs,Greggs,CV21 3DU,Rugby,,52.372417,-1.262685
Greggs,Greggs,CV37 6AB,Stratford-on-Avon,,52.192376,-1.705049
Greggs,Greggs Ltd,CV35 0HA,Stratford-on-Avon,,52.183632,-1.465546
Greggs,Greggs The Bakers,CV37 0HZ,Stratford-on-Avon,,52.200716,-1.710891
Greggs,Greggs,CV34 4BJ,Warwick,,52.281367,-1.58907
Greggs,Greggs,CV8 1HN,Warwick,,52.341418,-1.577608
Greggs,Greggs,CV34 6RH,Warwick,,52.27684,-1.545962
Greggs,Greggs Plc,CV32 4DE,Warwick,,52.29264,-1.535537
Greggs,Greggs,BN16 3DJ,Arun,,50.8107687,-0.5072008
Greggs,Greggs,PO21 1PY,Arun,,50.7838698,-0.6732253
Greggs,Greggs,BN17 5EJ,Arun,,50.8096254,-0.5419838
Greggs,Regis Greggs,PO21 5DS,Arun,,50.8029204,-0.6990265
Greggs,Greggs,PO19 1LB,Chichester,,50.837375,-0.779107
Greggs,Greggs,RH10 1EB,Crawley,,51.115779876709,-0.18593099713326
Greggs,Greggs,,Crawley,,0.0,0.0
Greggs,Greggs,RH10 1ES,Crawley,,51.114535,-0.186822
Greggs,Greggs At Apple Green Service Station,RH10 2NF,Crawley,,0.0,0.0
Greggs,Greggs Bakery,RH12 1PB,Horsham,,51.062744,-0.331061
Greggs,Copthorne Service Station - Greggs - Subway,RH10 3LF,Mid Sussex,,51.135931,-0.098032
Greggs,Greggs,RH15 9NP,Mid Sussex,,50.955074,-0.131198
Greggs,Greggs,RH19 1AG,Mid Sussex,,51.124606,-0.008694
Greggs,Greggs,RH16 4LA,Mid Sussex,,50.996697,-0.101793
Greggs,Greggs,RH11 9YA,Mid Sussex,,51.083326,-0.199951
Greggs,Greggs,BN11 3BP,Worthing,,50.809901,-0.375558
Greggs,Greggs,BN11 1BJ,Worthing,,50.812281,-0.370167
Greggs,Greggs,S70 1SH,Barnsley,,53.552656,-1.479721
Greggs,Greggs,S36 6BR,Barnsley,,53.523637,-1.630702
Greggs,Greggs,S70 2QT,Barnsley,,53.552711,-1.481939
Greggs,Greggs,S70 2JP,Barnsley,,53.553551,-1.478699
Greggs,Greggs,S71 1LL,Barnsley,,53.5615730285645,-1.4719580411911
Greggs,Greggs,S73 8DT,Barnsley,,53.531214,-1.4118274
Greggs,Greggs,S70 5SZ,Barnsley,,53.5040700005868,-1.47243499672685
Greggs,Greggs,S73 8BH,Barnsley,,53.523374,-1.399473
Greggs,Greggs,S70 3NS,Barnsley,,53.539938,-1.432405
Greggs,Greggs,B14 5JA,Birmingham,,52.406577,-1.887135
Greggs,Greggs,B24 9PZ,Birmingham,,52.519129,-1.802463
Greggs,Greggs,B72 1PH,Birmingham,,52.561894,-1.825696
Greggs,Greggs,B34 7AG,Birmingham,,0.0,0.0
Greggs,Greggs,B28 8AQ,Birmingham,,52.437673,-1.847015
Greggs,Greggs,B12 0XR,Birmingham,,52.465464,-1.890061
Greggs,Greggs,B14 7LG,Birmingham,,52.43402,-1.893199
Greggs,Greggs,B8 1HU,Birmingham,,52.48958,-1.852653
Greggs,Greggs,B32 4HD,Birmingham,,52.433502,-2.00525
Greggs,Greggs,B23 6SS,Birmingham,,52.522748,-1.841901
Greggs,Greggs,B33 9LZ,Birmingham,,52.488324,-1.794118
Greggs,Greggs,B34 7EH,Birmingham,,52.5012893676758,-1.77119398117065
Greggs,Greggs,B27 7RR,Birmingham,,52.443581,-1.834431
Greggs,Greggs,B10 0XE,Birmingham,,52.472243,-1.864061
Greggs,Greggs,B2 5HU,Birmingham,,52.48177,-1.897354
Greggs,Greggs,B42 1AA,Birmingham,,52.517608,-1.902958
Greggs,Greggs,B26 2UB,Birmingham,,52.464605,-1.777125
Greggs,Greggs,B4 7SL,Birmingham,,52.478764,-1.894165
Greggs,Greggs,B18 6NG,Birmingham,,52.4868495,-1.9130211
Greggs,Greggs,B30 1JA,Birmingham,,52.416562,-1.930189
Greggs,Greggs,B44 9SU,Birmingham,,52.552301,-1.883828
Greggs,Greggs,B31 2JU,Birmingham,,52.416857,-1.968005
Greggs,Greggs,B17 9NR,Birmingham,,52.459813,-1.946825
Greggs,Greggs,B2 4BA,Birmingham,,52.479311,-1.9021
Greggs,Greggs,B73 5TJ,Birmingham,,52.548674,-1.84169
Greggs,Greggs,B33 0HS,Birmingham,,52.473169,-1.761638
Greggs,Greggs,B29 6SQ,Birmingham,,0.0,0.0
Greggs,Greggs,B42 2AB,Birmingham,,52.535428,-1.905072
Greggs,Greggs,B29 5QL,Birmingham,,52.437247,-1.971477
Greggs,Greggs,B2 5AL,Birmingham,,52.480484,-1.89771
Greggs,Greggs,B7 5SY,Birmingham,,52.5057830810547,-1.86219000816345
Greggs,Greggs,B24 9PJ,Birmingham,,52.517352,-1.821289
Greggs,Greggs,B26 3JE,Birmingham,,52.452289,-1.782778
Greggs,Greggs,B44 8PP,Birmingham,,52.540624,-1.884433
Greggs,Greggs,B5 4BA,Birmingham,,52.476824,-1.895377
Greggs,Greggs,B72 1XX,Birmingham,,52.562601,-1.823215
Greggs,Greggs Bakery,B27 6BL,Birmingham,,52.446788,-1.820397
Greggs,Greggs Bakery,B21 9LR,Birmingham,,52.503696,-1.935635
Greggs,Greggs Bargain Bakery,B8 2HQ,Birmingham,,52.493256,-1.831888
Greggs,Greggs Plc,B45 0JA,Birmingham,,52.403024,-2.016094
Greggs,Greggs Plc,B2 4PY,Birmingham,,52.478758,-1.897537
Greggs,Greggs Plc,B19 2SS,Birmingham,,52.497592,-1.896919
Greggs,Greggs Plc,B25 8UJ,Birmingham,,52.462179,-1.814462
Greggs,Greggs Plc,B2 4QE,Birmingham,,52.4773899,-1.8980314
Greggs,Greggs Plc,B26 3HL,Birmingham,,52.4570770263672,-1.79611694812775
Greggs,Greggs Unit 2,B4 7DA,Birmingham,,52.4856481,-1.8909779
Greggs,Greggs,BL1 2AL,Bolton,,53.581676,-2.430054
Greggs,Greggs,BL1 1BG,Bolton,,53.579998,-2.42907
Greggs,Greggs,BL6 6JA,Bolton,,53.583126,-2.536271
Greggs,Greggs,BL1 1NE,Bolton,,53.577159,-2.428906
Greggs,Greggs,BL4 9DR,Bolton,,53.54793,-2.394638
Greggs,Greggs,BL1 1NS,Bolton,,53.5765075683594,-2.42719292640686
Greggs,Greggs Refil,BL1 7LR,Bolton,,53.610575,-2.432131
Greggs,Greggs,BD7 1AZ,Bradford,,53.790641,-1.762456
Greggs,Greggs,BD4 8QQ,Bradford,,53.784511,-1.720647
Greggs,Greggs,BD21 3QE,Bradford,,53.867426,-1.907156
Greggs,Greggs,BD18 3QJ,Bradford,,53.833301,-1.77785
Greggs,Greggs,LS29 8DA,Bradford,,53.924863,-1.822942
Greggs,Greggs,BD21 3PT,Bradford,,53.865719,-1.907434
Greggs,Greggs,BD1 1HA,Bradford,,53.793981,-1.751674
Greggs,Greggs,BD1 1PU,Bradford,,53.79375,-1.753057
Greggs,Greggs,BD1 1TU,Bradford,,53.791587,-1.750261
Greggs,Greggs,BD10 0QS,Bradford,,53.8306007385254,-1.71200001239777
Greggs,Greggs,BD21 3NJ,Bradford,,53.874273,-1.90603
Greggs,Greggs,BD1 4RN,Bradford,,53.800864,-1.755323
Greggs,Greggs,BD2 2JU,Bradford,,53.823649,-1.734409
Greggs,Greggs,BD1 1QU,Bradford,,53.7947273254395,-1.75563204288483
Greggs,Greggs,BD7 1ND,Bradford,,53.792935,-1.772644
Greggs,Greggs,BD4 6SG,Bradford,,53.759819,-1.739589
Greggs,Greggs,BD9 4JR,Bradford,,53.81609,-1.773734
Greggs,Greggs,BD7 2SG,Bradford,,0.0,0.0
Greggs,Greggs,BD16 1GL,Bradford,,53.84711,-1.836721
Greggs,Greggs,BL9 9SH,Bury,,53.572074,-2.294382
Greggs,Greggs,BL9 0JN,Bury,,53.595063,-2.292079
Greggs,Greggs,BL9 0QQ,Bury,,53.592403,-2.295384
Greggs,Greggs,BL9 0QL,Bury,,53.591657,-2.295273
Greggs,Greggs,,Bury,,54.8574550251698,-1.7365249755769
Greggs,Greggs,BL9 9SH,Bury,,53.5710399,-2.2940246
Greggs,Greggs,,Bury,,53.6591000000417,-2.31555000014235
Greggs,Greggs,BL9 8RS,Bury,,53.5777969360352,-2.27373099327087
Greggs,Greggs,M25 1AY,Bury,,53.532945,-2.284318
Greggs,Greggs Pellon Lane Service Station,HX1 5RL,Calderdale,,53.727213,-1.876243
Greggs,Greggs plc,HD6 1AF,Calderdale,,53.70209,-1.780707
Greggs,Greggs Plc,HX1 1DL,Calderdale,,53.722126,-1.859875
Greggs,Greggs Plc,HX1 1RU,Calderdale,,53.723427,-1.857931
Greggs,Greggs,CV6 3ES,Coventry,,52.430116,-1.516916
Greggs,Greggs,CV3 5HD,Coventry,,52.394481,-1.506371
Greggs,Greggs,CV5 6EG,Coventry,,52.399555,-1.53155
Greggs,Greggs,CV2 4BA,Coventry,,52.411383,-1.481293
Greggs,Greggs,CV1 1FY,Coventry,,52.409091,-1.513265
Greggs,Greggs,CV4 9PQ,Coventry,,52.406662,-1.575795
Greggs,Greggs,CV1 1NF,Coventry,,52.407797,-1.511206
Greggs,Greggs,CV6 5AU,Coventry,,52.428928,-1.499369
Greggs,Greggs,CV1 1FD,Coventry,,52.409136,-1.510942
Greggs,Greggs,CV1 1DG,Coventry,,52.406198,-1.513782
Greggs,Greggs,CV6 6AS,Coventry,,52.4442075,-1.4923916
Greggs,Greggs,CV3 2SB,Coventry,,52.397353,-1.433193
Greggs,Greggs,CV5 6UA,Coventry,,52.402809,-1.557355
Greggs,Greggs PLC,CV4 7EH,Coventry,,52.387823,-1.55489
Greggs,Greggs,DN1 1LB,Doncaster,,53.524063,-1.138615
Greggs,Greggs,DN1 1LD,Doncaster,,53.524178,-1.134691
Greggs,Greggs,S64 9AS,Doncaster,,53.493483,-1.289062
Greggs,Greggs,DN6 8LR,Doncaster,,53.5882110595703,-1.21502494812012
Greggs,Greggs,DN12 4XX,Doncaster,,53.476331,-1.230744
Greggs,Greggs,DN8 5GS,Doncaster,,53.592159,-0.99234
Greggs,Greggs,DN4 5AJ,Doncaster,,53.5150375366211,-1.12867903709412
Greggs,Greggs,DN2 4PE,Doncaster,,53.542997,-1.100081
Greggs,Greggs,DN11 0TS,Doncaster,,53.478324,-1.077793
Greggs,Greggs,DN4 5PH,Doncaster,,53.507452,-1.114073
Greggs,Greggs of Yorkshire,DN1 3JZ,Doncaster,,53.521069,-1.133593
Greggs,Greggs of Yorkshire,DN1 1TT,Doncaster,,53.5224739,-1.1373978
Greggs,Greggs the Bakers,DN3 3FL,Doncaster,,53.536234,-1.057705
Greggs,Greggs,DY1 1LF,Dudley,,52.510994,-2.081157
Greggs,Greggs,DY6 9JU,Dudley,,52.496149,-2.16821
Greggs,Greggs,DY5 4JD,Dudley,,52.501069,-2.122768
Greggs,Greggs,DY3 1SA,Dudley,,52.540501,-2.120888
Greggs,Greggs,WV14 9EP,Dudley,,52.540404,-2.088111
Greggs,Greggs,DY8 1DX,Dudley,,52.456031,-2.144776
Greggs,Greggs,DY6 7UW,Dudley,,52.504983,-2.150977
Greggs,Greggs,B63 4AJ,Dudley,,52.448584,-2.051585
Greggs,Greggs,DY5 1SH,Dudley,,52.479928,-2.109664
Greggs,Greggs,DY5 1SL,Dudley,,52.480807,-2.112743
Greggs,Greggs,DY8 1JN,Dudley,,52.4601821899414,-2.14657092094421
Greggs,Greggs,DH3 2SJ,Gateshead,,54.889333,-1.559851
Greggs,Greggs,NE11 0BE,Gateshead,,54.94307,-1.624125
Greggs,Greggs,NE8 1BH,Gateshead,,54.96266,-1.604154
Greggs,Greggs,NE8 1BF,Gateshead,,0.0,0.0
Greggs,Greggs,NE8 3AH,Gateshead,,54.965857,-1.587223
Greggs,Greggs,DH3 2QH,Gateshead,,54.89539,-1.577949
Greggs,Greggs,NE11 0RS,Gateshead,,54.926311,-1.618258
Greggs,Greggs,NE21 5BT,Gateshead,,54.96468,-1.71209
Greggs,Greggs,NE10 8XQ,Gateshead,,54.940591,-1.545305
Greggs,Greggs,NE11 9BT,Gateshead,,54.961327,-1.679443
Greggs,Greggs,NE9 7JR,Gateshead,,54.925385,-1.574764
Greggs,Greggs,NE16 4DN,Gateshead,,54.946252,-1.677486
Greggs,Greggs,NE9 5EX,Gateshead,,54.936584,-1.599322
Greggs,Greggs (Qube),NE11 9XY,Gateshead,,54.95765,-1.668572
Greggs,Greggs (Red Mall),NE11 9YR,Gateshead,,54.95765,-1.668572
Greggs,Greggs (Upper Blue Mall),NE11 9XX,Gateshead,,54.95765,-1.668572
Greggs,Greggs,WF13 1NH,Kirklees,,53.690417,-1.628533
Greggs,Greggs,BD19 5AE,Kirklees,,53.724571,-1.713588
Greggs,Greggs,HD1 2RS,Kirklees,,53.644046,-1.781567
Greggs,Greggs,WF13 1QH,Kirklees,,53.692268,-1.628411
Greggs,Greggs,HD1 2BQ,Kirklees,,53.645081,-1.782757
Greggs,Greggs,HD5 9AD,Kirklees,,53.64454,-1.772141
Greggs,Greggs,WF16 0EZ,Kirklees,,53.706991,-1.675107
Greggs,Greggs,WF17 5EF,Kirklees,,53.713771,-1.632313
Greggs,Greggs,HD1 2QB,Kirklees,,53.6459225,-1.7791038
Greggs,Greggs,BD19 3QB,Kirklees,,53.7352492,-1.7234237
Greggs,Greggs,HD3 3QP,Kirklees,,53.667566,-1.824337
Greggs,Greggs,HD1 2JN,Kirklees,,53.645214,-1.786492
Greggs,Greggs,HD2 1UU,Kirklees,,53.678444,-1.74112
Greggs,Greggs,WF15 7QQ,Kirklees,,53.6983299255371,-1.69758999347687
Greggs,Greggs Unit 8,WF13 3HN,Kirklees,,53.680137,-1.662794
Greggs,Greggs,L32 8RD,Knowsley,,53.481703,-2.887198
Greggs,Greggs,L36 9UQ,Knowsley,,53.411274,-2.838973
Greggs,Greggs,,Leeds,,0.0,0.0
Greggs,Greggs,LS25 2EB,Leeds,,53.7972686,-1.3774833
Greggs,Greggs,LS1 6DX,Leeds,,53.795142,-1.541519
Greggs,Greggs,LS28 6HQ,Leeds,,0.0,0.0
Greggs,Greggs  (West Point),LS1 4JY,Leeds,,53.795941,-1.553306
Greggs,Greggs (Albion Street),LS2 8DY,Leeds,,53.800056,-1.545656
Greggs,Greggs (Albion Street),LS1 5AA,Leeds,,53.797979,-1.545466
Greggs,Greggs (Armley),LS12 3AB,Leeds,,53.797374,-1.58959
Greggs,Greggs (Arndale Centre),LS6 2UE,Leeds,,53.822195,-1.578137
Greggs,Greggs (Austhorpe),LS15 8GB,Leeds,,53.798636,-1.427994
Greggs,Greggs (Bond Street),LS1 5BQ,Leeds,,53.797721,-1.546076
Greggs,Greggs (Bramley),LS13 2ET,Leeds,,53.811776,-1.626414
Greggs,Greggs (Central Bus Station),LS2 7HU,Leeds,,53.796801,-1.535838
Greggs,Greggs (Chapel Allerton),LS7 4NY,Leeds,,53.829363,-1.537833
Greggs,Greggs (Crossgates Shopping Centre),LS15 8ET,Leeds,,53.806293,-1.450819
Greggs,Greggs (Garforth),LS25 1AF,Leeds,,53.795323,-1.388523
Greggs,Greggs (Gelderd Road),LS12 6DQ,Leeds,,53.779382,-1.582314
Greggs,Greggs (Great George Street),LS1 3BB,Leeds,,53.800949,-1.551249
Greggs,Greggs (Harehills),LS9 6AX,Leeds,,53.809422,-1.509321
Greggs,Greggs (Horsforth),LS18 5LJ,Leeds,,53.83751,-1.641564
Greggs,Greggs (Hunslet),LS10 2AP,Leeds,,53.77886,-1.528661
Greggs,Greggs (Kirkgate),LS1 6BY,Leeds,,53.797117,-1.540966
Greggs,Greggs (Kirkstall),LS4 2EZ,Leeds,,53.807146,-1.587551
Greggs,Greggs (Meanwood),LS7 2TT,Leeds,,53.828742,-1.564124
Greggs,Greggs (Merrion Centre),LS2 8NG,Leeds,,53.801713,-1.544104
Greggs,Greggs (Merrion Street),LS2 8LW,Leeds,,53.800948,-1.543809
Greggs,Greggs (Middleton),LS10 4HP,Leeds,,53.746811,-1.548125
Greggs,Greggs (Morley),LS27 9BG,Leeds,,53.745331,-1.602227
Greggs,Greggs (Otley),LS21 3AQ,Leeds,,53.905613,-1.694042
Greggs,Greggs (Pudsey),LS28 7TY,Leeds,,53.7957801818848,-1.66388702392578
Greggs,Greggs (Rothwell),LS26 0AP,Leeds,,53.748411,-1.477368
Greggs,Greggs (Roundhay),LS8 3AS,Leeds,,53.820878,-1.495409
Greggs,Greggs (Seacroft Green),LS14 6JD,Leeds,,53.822408,-1.460741
Greggs,Greggs (South Parkway),LS14 6ER,Leeds,,53.816201,-1.46966
Greggs,Greggs (The Headrow),LS1 6LR,Leeds,,53.799066,-1.542888
Greggs,Greggs (The Light),LS1 8EQ,Leeds,,53.799737,-1.544399
Greggs,Greggs (White Rose 28G),LS11 8LL,Leeds,,53.758644,-1.574238
Greggs,Greggs (White Rose 57B),LS11 8LL,Leeds,,53.758645,-1.574239
Greggs,Greggs (Within Coronation Service Station),LS17 8ND,Leeds,,53.838939666748,-1.47148501873016
Greggs,Greggs (Wortley),LS12 4BR,Leeds,,53.789173,-1.585739
Greggs,Greggs (Yeadon),LS19 7SP,Leeds,,53.866218,-1.68335
Greggs,Greggs Lawnswood,LS16 8AA,Leeds,,53.8481254577637,-1.59151494503021
Greggs,Greggs Pantry (Rothwell),LS26 0PW,Leeds,,53.756005,-1.493805
Greggs,Sodexo (Greggs),LS13 4UD,Leeds,,53.804424,-1.623428
Greggs,Greggs,L11 1BX,Liverpool,,53.441961,-2.930134
Greggs,Greggs,L2 4SX,Liverpool,,53.406551,-2.990751
Greggs,Greggs,L1 1EF,Liverpool,,53.406389,-2.984248
Greggs,Greggs,L1 4DN,Liverpool,,53.403823,-2.979301
Greggs,Greggs,L8 7NL,Liverpool,,53.3995170593262,-2.96849298477173
Greggs,Greggs,L3 9PP,Liverpool,,53.409197,-2.994709
Greggs,Greggs,,Liverpool,,53.4043699,-2.9869538
Greggs,Greggs,l4 3QH,Liverpool,,53.4392451,-2.9708108
Greggs,Greggs,L13 5UX,Liverpool,,53.413831,-2.9118265
Greggs,Greggs,L1 1LP,Liverpool,,53.406219,-2.980905
Greggs,Greggs,L2 6SG,Liverpool,,53.405594,-2.988035
Greggs,Greggs,L13 2ER,Liverpool,,53.411735534668,-2.92741298675537
Greggs,Greggs,L24 1UX,Liverpool,,53.348826,-2.864425
Greggs,Greggs,L11 2FT,Liverpool,,0.0,0.0
Greggs,Greggs,L3 5RA,Liverpool,,53.405696,-2.972379
Greggs,Greggs,L1 1QE,Liverpool,,53.404798,-2.979925
Greggs,Greggs,L7 8XP,Liverpool,,53.409514,-2.964824
Greggs,Greggs (BP Filling Station),L13 0AD,Liverpool,,53.430061,-2.921883
Greggs,Greggs North West,L13 8AD,Liverpool,,53.42466,-2.933248
Greggs,Greggs plc,L25 2RG,Liverpool,,53.391133,-2.858832
Greggs,Greggs Plc,L7 0LQ,Liverpool,,53.41224,-2.943161
Greggs,Greggs,M1 2DA,Manchester,,53.4801662,-2.2334391
Greggs,Greggs,M1 5QA,Manchester,,53.472901,-2.23997
Greggs,Greggs,M2 7AQ,Manchester,,53.481897,-2.244782
Greggs,Greggs,M12 4JH,Manchester,,53.457146,-2.200349
Greggs,Greggs,M11 4PD,Manchester,,53.48113,-2.169165
Greggs,Greggs,M20 0RN,Manchester,,53.420097,-2.238589
Greggs,Greggs,M13 9NG,Manchester,,53.461596,-2.229454
Greggs,Greggs,M3 2AY,Manchester,,53.482938,-2.246221
Greggs,Greggs,M2 5EB,Manchester,,53.479243,-2.246199
Greggs,Greggs,M3 2PW,Manchester,,53.481979,-2.248882
Greggs,Greggs,M1 2GH,Manchester,,53.478247,-2.231698
Greggs,Greggs,M11 1DA,Manchester,,53.473838,-2.164556
Greggs,Greggs,M1 1LZ,Manchester,,53.482029,-2.237565
Greggs,Greggs,M2 3LW,Manchester,,53.479063,-2.242054
Greggs,Greggs,M4 2HU,Manchester,,53.4826517,-2.2401582
Greggs,Greggs,M4 3AT,Manchester,,53.4829521179199,-2.24279689788818
Greggs,Greggs,M4 3AQ,Manchester,,53.4834845,-2.2417
Greggs,Greggs,M1 4BT,Manchester,,53.480444,-2.239003
Greggs,Greggs,M90 5PZ,Manchester,,53.361884,-2.288602
Greggs,Greggs,M22 5RF,Manchester,,53.3804099,-2.2624257
Greggs,Greggs,M90 1QX,Manchester,,53.361889,-2.270855
Greggs,Greggs,M90 4FX,Manchester,,0.0,0.0
Greggs,Greggs,M13 9AB,Manchester,,53.465801,-2.215995
Greggs,Greggs,M8 8EP,Manchester,,53.4972132,-2.2349078
Greggs,Greggs,M3 3AQ,Manchester,,53.480117,-2.253904
Greggs,Greggs,M9 4DH,Manchester,,53.512745,-2.212283
Greggs,Greggs,M23 9GP,Manchester,,53.3928375244141,-2.29377388954163
Greggs,Greggs,M3 1NX,Manchester,,53.486362,-2.241734
Greggs,Greggs Canteen,M11 2HW,Manchester,,53.4757136,-2.1820514
Greggs,Royle Green Greggs,M22 4SY,Manchester,,53.4015922546387,-2.25381207466125
Greggs,Greggs,NE4 7BG,Newcastle Upon Tyne,,54.962982,-1.632264
Greggs,Greggs,NE4 9QA,Newcastle Upon Tyne,,54.976007,-1.654908
Greggs,Greggs,NE3 1HA,Newcastle Upon Tyne,,55.004445,-1.620582
Greggs,Greggs,NE6 3DP,Newcastle Upon Tyne,,54.974163,-1.545099
Greggs,Greggs,NE6 5LJ,Newcastle Upon Tyne,,54.9871864318848,-1.57761299610138
Greggs,Greggs,NE6 1DQ,Newcastle Upon Tyne,,54.977899,-1.576617
Greggs,Greggs,NE6 1DR,Newcastle Upon Tyne,,54.976408,-1.584881
Greggs,Greggs,NE1 3DE,Newcastle Upon Tyne,,54.969116,-1.605029
Greggs,Greggs,NE2 2DJ,Newcastle Upon Tyne,,54.992362,-1.604754
Greggs,Greggs,NE1 7DE,Newcastle Upon Tyne,,54.974871,-1.611784
Greggs,Greggs,NE7 7EE,Newcastle Upon Tyne,,55.0081,-1.5788
Greggs,Greggs,NE1 5PN,Newcastle Upon Tyne,,54.972878,-1.615552
Greggs,Greggs,NE1 5DF,Newcastle Upon Tyne,,54.969434,-1.617538
Greggs,Greggs,NE1 7UG,Newcastle Upon Tyne,,54.974223,-1.614461
Greggs,Greggs,NE1 7JD,Newcastle Upon Tyne,,54.975042,-1.615078
Greggs,Greggs,NE1 5JE,Newcastle Upon Tyne,,54.970768,-1.61615
Greggs,Greggs,NE1 6EG,Newcastle Upon Tyne,,54.973086,-1.613082
Greggs,Greggs,NE1 7PG,Newcastle Upon Tyne,,54.977694,-1.61249
Greggs,Greggs,NE4 9RX,Newcastle Upon Tyne,,54.986148,-1.663103
Greggs,Greggs,NE1 7PF,Newcastle Upon Tyne,,54.97716,-1.613886
Greggs,Greggs,NE5 3RD,Newcastle Upon Tyne,,0.0,0.0
Greggs,Greggs,NE13 8BZ,Newcastle Upon Tyne,,55.037032,-1.710133
Greggs,Greggs,NE5 2RA,Newcastle Upon Tyne,,54.9930267333984,-1.69957196712494
Greggs,Greggs,NE3 2FP,Newcastle Upon Tyne,,55.013703,-1.667532
Greggs,Greggs,NE1 4TD,Newcastle Upon Tyne,,54.974077,-1.619586
Greggs,Greggs,NE4 8BE,Newcastle Upon Tyne,,54.970258,-1.655769
Greggs,Greggs Bakery Outlet,NE6 2QX,Newcastle Upon Tyne,,54.974204,-1.561033
Greggs,Greggs Bakery Outlet,NE4 6PB,Newcastle Upon Tyne,,54.973248,-1.639278
Greggs,Greggs,,North Tyneside,,0.0,0.0
Greggs,Greggs,NE12 8GA,North Tyneside,,55.011485,-1.59129
Greggs,Greggs,NE12 8BW,North Tyneside,,55.012484,-1.565713
Greggs,Greggs Bakery Outlet,NE28 0LF,North Tyneside,,54.996561,-1.50236
Greggs,Greggs North East,NE12 6YT,North Tyneside,,55.036284,-1.566927
Greggs,Greggs North East,NE28 9EN,North Tyneside,,55.002133,-1.514513
Greggs,Greggs Of Gosforth,NE12 7AR,North Tyneside,,55.021751,-1.566239
Greggs,Greggs Of Gosforth,NE28 8JP,North Tyneside,,54.991364,-1.535746
Greggs,Greggs Of Gosforth,NE29 6QA,North Tyneside,,55.00883,-1.446858
Greggs,Greggs Of Gosforth,NE26 2TE,North Tyneside,,55.042395,-1.445175
Greggs,Greggs,OL2 8NH,Oldham,,53.577038,-2.09396
Greggs,Greggs,OL1 1XD,Oldham,,53.5416877,-2.1122434
Greggs,Greggs,OL1 1NH,Oldham,,53.5428622,-2.1154004
Greggs,Greggs,OL9 0LJ,Oldham,,53.545236,-2.140793
Greggs,Hollinwood Greggs,OL8 3RB,Oldham,,53.5182189941406,-2.14556002616882
Greggs,Greggs,OL16 1EA,Rochdale,,53.617632,-2.158993
Greggs,Greggs,OL16 5AF,Rochdale,,53.6147842407227,-2.12828207015991
Greggs,Greggs,M24 4EL,Rochdale,,53.548251,-2.201066
Greggs,Heap Bridge Greggs,BL9 7HY,Rochdale,,53.5912322998047,-2.26074600219727
Greggs,Milnrow Greggs,OL12 0EP,Rochdale,,53.6236114501953,-2.14992690086365
Greggs,Greggs,S66 1AA,Rotherham,,53.420738,-1.284513
Greggs,Greggs,S65 1AJ,Rotherham,,53.431876,-1.35576
Greggs,Greggs,S60 1QB,Rotherham,,53.433085,-1.356614
Greggs,Greggs,S60 1TG,Rotherham,,53.444171,-1.345516
Greggs,Greggs,S20 1DJ,Rotherham,,53.3566780090332,-1.33111202716827
Greggs,Greggs,S63 7FN,Rotherham,,53.510181427002,-1.35659396648407
Greggs,HKS Greggs,S25 3QZ,Rotherham,,53.3758137,-1.2268382
Greggs,Rawmarsh Greggs,S62 7BY,Rotherham,,53.4667358398438,-1.33967101573944
Greggs,Spar / Subway / Greggs,S66 9LA,Rotherham,,53.3957176208496,-1.25727701187134
Greggs,Greggs,WA10 1BD,St Helens,,53.452148,-2.736477
Greggs,Greggs Ltd,WA9 1AG,St Helens,,53.453968,-2.721043
Greggs,Greggs,M30 0EA,Salford,,53.483823,-2.336567
Greggs,Greggs,M6 5HU,Salford,,53.489246,-2.287025
Greggs,Greggs,M6 8HH,Salford,,53.489279,-2.326573
Greggs,Greggs,M6 6FN,Salford,,53.495931,-2.272856
Greggs,Greggs,M5 3AW,Salford,,53.469734,-2.2826
Greggs,Greggs,M44 6FB,Salford,,53.455379486084,-2.40218091011047
Greggs,Greggs PLC,M27 4BH,Salford,,53.512518,-2.338408
Greggs,Greggs PLC,M28 3ZD,Salford,,53.524901,-2.40017
Greggs,Greggs,B70 7PP,Sandwell,,52.519832,-1.990656
Greggs,Greggs,B66 4BH,Sandwell,,52.474915,-1.969023
Greggs,Greggs,B71 4JZ,Sandwell,,52.510416,-1.969617
Greggs,Greggs,B69 3DD,Sandwell,,52.504322052002,-2.02199506759644
Greggs,Greggs,B70 7NN,Sandwell,,52.517522,-1.993398
Greggs,Greggs Bakery Outlet,DY4 9JB,Sandwell,,52.543137,-2.060514
Greggs,Greggs Plc,B42 1TQ,Sandwell,,52.54521,-1.933171
Greggs,Greggs Plc,B71 3HP,Sandwell,,52.544652,-1.983986
Greggs,Greggs Plc,B64 6HU,Sandwell,,52.476841,-2.068255
Greggs,Greggs Plc,WS10 7HD,Sandwell,,52.5525,-2.020544
Greggs,Greggs Plc,B66 4RX,Sandwell,,52.486968,-1.960356
Greggs,Greggs plc,B65 0DU,Sandwell,,52.475703,-2.039927
Greggs,Greggs Plc,B68 0BZ,Sandwell,,52.463537,-1.996864
Greggs,Formby Greggs (Euro Garages Ltd),L37 7AE,Sefton,,53.568757,-3.048341
Greggs,Greggs,L30 5QA,Sefton,,53.48847,-2.973925
Greggs,Greggs,L22 0ND,Sefton,,53.475658,-3.023806
Greggs,Greggs,L23 2SE,Sefton,,53.492709,-3.024955
Greggs,Greggs The Bakers,L20 4XX,Sefton,,53.452175,-2.992249
Greggs,Weld Blundell Greggs,L38 1QA,Sefton,,53.5278282165527,-3.03205990791321
Greggs,Greggs,S1 2HJ,Sheffield,,53.379207,-1.470246
Greggs,Greggs,S1 2HJ,Sheffield,,53.3791005,-1.4704573
Greggs,Greggs,S9 1EQ,Sheffield,,53.417488,-1.412144
Greggs,Greggs,S9 1EH,Sheffield,,53.414871,-1.410134
Greggs,Greggs,S6 4HL,Sheffield,,53.403467,-1.501426
Greggs,Greggs,S36 2AA,Sheffield,,53.48291015625,-1.58957004547119
Greggs,Greggs,S2 1GE,Sheffield,,53.367319,-1.4394793
Greggs,Greggs,S20 7JJ,Sheffield,,53.3451766967773,-1.35687100887299
Greggs,Greggs,S8 8BR,Sheffield,,53.3263397216797,-1.46955001354218
Greggs,Greggs,S20 7PQ,Sheffield,,53.342037,-1.351391
Greggs,Greggs,S2 5AU,Sheffield,,53.38402,-1.441531
Greggs,Greggs Cafe,S20 7PQ,Sheffield,,53.342037,-1.351391
Greggs,Greggs of Yorkshire,S1 2HE,Sheffield,,53.381774,-1.469418
Greggs,Greggs of Yorkshire,S1  2GH,Sheffield,,53.383298,-1.466317
Greggs,Greggs of Yorkshire,S5 6HJ,Sheffield,,53.418887,-1.447244
Greggs,Greggs of Yorkshire,S1 4PG,Sheffield,,53.378718,-1.470745
Greggs,Greggs PLC,S1 4PF,Sheffield,,53.376593,-1.472564
Greggs,Cafe Greggs,B37 5EX,Solihull,,52.479328,-1.740888
Greggs,Greggs,B91 3SJ,Solihull,,52.413769,-1.778733
Greggs,Greggs,B91 3GS,Solihull,,52.412413,-1.779402
Greggs,Greggs,B37 5TL,Solihull,,52.479343,-1.739254
Greggs,Greggs,B92 8JN,Solihull,,52.444976,-1.784948
Greggs,Greggs,B37 6BB,Solihull,,52.494209,-1.750419
Greggs,Greggs,B37 6RD,Solihull,,52.490236,-1.738247
Greggs,Greggs,B90 3GG,Solihull,,0.0,0.0
Greggs,Greggs,B36 0UG,Solihull,,52.501613,-1.748742
Greggs,Greggs,B37 7YN,Solihull,,52.4672072,-1.7212287
Greggs,Greggs@Euro Bickenhill Service Station,B92 0EH,Solihull,,52.445391,-1.721167
Greggs,GREGGS,NE33 1DA,South Tyneside,,54.998397,-1.433151
Greggs,Greggs,NE32 3HE,South Tyneside,,54.976676,-1.468828
Greggs,Greggs,NE33 5EA,South Tyneside,,54.988731,-1.437757
Greggs,Greggs,NE10 8YB,South Tyneside,,54.945658,-1.519115
Greggs,Greggs,NE33 1NE,South Tyneside,,54.9978942871094,-1.43162596225739
Greggs,Greggs,NE32 5YR,South Tyneside,,54.9600868225098,-1.49245297908783
Greggs,Greggs Of Gosforth Ltd,NE33 1DP,South Tyneside,,54.997648,-1.436476
Greggs,Greggs Of Gosforth Ltd,NE32 3LW,South Tyneside,,54.980763,-1.489306
Greggs,Greggs Of Gosforth Ltd,NE34 7LZ,South Tyneside,,54.972199,-1.40801
Greggs,Greggs Of Gosforth Ltd,NE31 1LF,South Tyneside,,54.973058,-1.519319
Greggs,Greggs,SK1 1UD,Stockport,,53.412681,-2.157474
Greggs,Greggs,SK1 1RA,Stockport,,53.410022,-2.162338
Greggs,Greggs,SK6 6AY,Stockport,,53.39471,-2.062925
Greggs,Greggs,SK4 1TN,Stockport,,53.420378,-2.161354
Greggs,Greggs,SK1 1RY,Stockport,,53.411929,-2.161127
Greggs,Greggs,SK3 9AT,Stockport,,53.402001,-2.165526
Greggs,Greggs,SK8 1AE,Stockport,,53.394657,-2.216206
Greggs,Greggs,SK7 1JN,Stockport,,53.356914,-2.165366
Greggs,Greggs,SK6 2QN,Stockport,,53.429316,-2.120512
Greggs,Greggs,SR1 3JT,Sunderland,,54.904635,-1.385638
Greggs,Greggs,DH5 9PA,Sunderland,,0.0,0.0
Greggs,Greggs,SR1 1RH,Sunderland,,54.9061773,-1.3814162
Greggs,Greggs,SR5 2LL,Sunderland,,0.0,0.0
Greggs,Greggs,SR4 7HR,Sunderland,,54.901647,-1.404428
Greggs,Greggs,SR1 3LB,Sunderland,,54.906774,-1.385621
Greggs,Greggs,SR6 9BS,Sunderland,,54.92966,-1.379873
Greggs,Greggs,SR3 3XL,Sunderland,,54.864002,-1.434585
Greggs,Greggs,SR4 8NP,Sunderland,,54.8938293457031,-1.43104898929596
Greggs,Greggs,SR4 6NQ,Sunderland,,54.9085502624512,-1.4141960144043
Greggs,Greggs,NE37 2PA,Sunderland,,54.9071937,-1.5037855
Greggs,Greggs,DH4 4AB,Sunderland,,54.843436,-1.471435
Greggs,Greggs,SR5 3PZ,Sunderland,,54.92251,-1.451489
Greggs,Greggs,NE38 7RR,Sunderland,,54.900104,-1.532741
Greggs,Greggs,SR5 3XG,Sunderland,,54.9178059,-1.4330163
Greggs,Greggs,NE37 2SW,Sunderland,,54.9130779,-1.5227903
Greggs,Greggs,SR1 3DG,Sunderland,,54.9067764282227,-1.38562202453613
Greggs,Greggs,SR4 9AS,Sunderland,,54.8966848,-1.440033
Greggs,Greggs,SR1 3BT,Sunderland,,54.9067885,-1.383216
Greggs,Greggs,,Sunderland,,54.9030332,-1.3852228
Greggs,Greggs Bakery Outlet,SR2 8RL,Sunderland,,54.8952,-1.371624
Greggs,Greggs,SK14 2QT,Tameside,,53.450833,-2.0782755
Greggs,Greggs,M43 7AD,Tameside,,53.480045,-2.146242
Greggs,Greggs,M34 3JU,Tameside,,53.456026,-2.115422
Greggs,Greggs,SK15 2JJ,Tameside,,53.482135,-2.057494
Greggs,Greggs,OL6 7JJ,Tameside,,53.48877,-2.095904
Greggs,Greggs,M34 3JP,Tameside,,53.4592323303223,-2.11838388442993
Greggs,Greggs,M33 7YE,Trafford,,53.424969,-2.322558
Greggs,Greggs,WA14 1RH,Trafford,,53.388037,-2.350199
Greggs,Greggs,M33 3HE,Trafford,,53.419991,-2.304674
Greggs,Greggs,M32 9BA,Trafford,,53.445686,-2.309435
Greggs,Greggs,M17 1JE,Trafford,,53.466034,-2.310246
Greggs,Greggs,M17 8AR,Trafford,,53.4661865234375,-2.34902000427246
Greggs,Greggs,M17 1PZ,Trafford,,53.4669609069824,-2.32358407974243
Greggs,Greggs,WA14 5QQ,Trafford,,0.0,0.0
Greggs,Greggs,M41 0NA,Trafford,,53.448968,-2.354194
Greggs,Greggs,WF8 1AT,Wakefield,,53.69163,-1.311475
Greggs,Greggs,WF10 4FR,Wakefield,,53.71274,-1.339584
Greggs,Greggs,WF6 2AF,Wakefield,,53.700179,-1.418514
Greggs,Greggs,WF10 1DB,Wakefield,,53.72608,-1.353046
Greggs,Greggs,WF1 1YD,Wakefield,,53.682066,-1.497629
Greggs,Greggs,WF10 3JJ,Wakefield,,53.723521,-1.314606
Greggs,Greggs,WF10 1EG,Wakefield,,53.725246,-1.356726
Greggs,Greggs,WF4 4LQ,Wakefield,,53.622041,-1.544605
Greggs,Greggs,WF4 4LQ,Wakefield,,53.622041,-1.544605
Greggs,Greggs,WF11 0AF,Wakefield,,53.697531,-1.266758
Greggs,Greggs,WF2 7BL,Wakefield,,0.0,0.0
Greggs,Greggs,WF1 4LH,Wakefield,,53.686703,-1.488822
Greggs,Greggs,WF1 3AQ,Wakefield,,53.685915,-1.498325
Greggs,Greggs,WF1 2QN,Wakefield,,53.682812,-1.504236
Greggs,Greggs,WF1 2UZ,Wakefield,,0.0,0.0
Greggs,Greggs,WF1 1QR,Wakefield,,53.683968,-1.496789
Greggs,Greggs,WS9 8QP,Walsall,,52.604281,-1.917667
Greggs,Greggs,WS3 3LG,Walsall,,52.616895,-2.004668
Greggs,Greggs,WV12 5EA,Walsall,,52.612781,-2.037025
Greggs,Greggs,WS8 6EL,Walsall,,52.646768,-1.933062
Greggs,Greggs,WS1 1NG,Walsall,,52.585178,-1.983322
Greggs,Greggs,WV13 1RT,Walsall,,52.585193,-2.056307
Greggs,Greggs,WS2 8EQ,Walsall,,52.588954,-1.983424
Greggs,Greggs,WS1 1YT,Walsall,,52.583884,-1.984031
Greggs,Greggs plc,WS1 1LW,Walsall,,52.584117,-1.981492
Greggs,Greggs,WN1 1PE,Wigan,,53.546312,-2.631397
Greggs,Greggs,WN7 4NB,Wigan,,53.496507,-2.517179
Greggs,Greggs,M46 0DA,Wigan,,53.523894,-2.494012
Greggs,Greggs,WN7 5SJ,Wigan,,53.499526,-2.527813
Greggs,Greggs (Warrington Road Service Station),WN3 6PF,Wigan,,53.532488,-2.654666
Greggs,Greggs,CH44 5TP,Wirral,,53.419695,-3.043346
Greggs,Greggs,CH46 0SL,Wirral,,53.400259,-3.114088
Greggs,Greggs,CH41 2ZL,Wirral,,53.389396,-3.026395
Greggs,Greggs,CH62 3PN,Wirral,,53.3408470153809,-2.9757239818573
Greggs,Gateway Greggs,WV10 7ER,Wolverhampton,,52.6368179321289,-2.12607097625732
Greggs,Greggs Plc,WV10 6RT,Wolverhampton,,52.620626,-2.130711
Greggs,Greggs Plc,WV4 4PP,Wolverhampton,,52.568321,-2.167572
Greggs,Greggs Plc,WV11 3PX,Wolverhampton,,52.5926246643066,-2.07804608345032
Greggs,Greggs Plc,WV1 3NJ,Wolverhampton,,52.584499,-2.127622
Greggs,Greggs Plc,WV1 3AG,Wolverhampton,,52.585004,-2.125955
Greggs,Greggs Plc,WV1 3HG,Wolverhampton,,52.583214,-2.127013
Greggs,Greggs Plc,WV10 8PN,Wolverhampton,,52.611728,-2.100572
Greggs,Greggs Plc,WV6 0QW,Wolverhampton,,52.594244,-2.142899
Greggs,Greggs Plc,WV11 1SZ,Wolverhampton,,52.599831,-2.082119
Greggs,Greggs Plc,WV14 0BJ,Wolverhampton,,52.565124,-2.07807
Greggs,Greggs Plc,WV1 3EN,Wolverhampton,,52.585559,-2.12761
Greggs,Greggs Plc,WV10 0QP,Wolverhampton,,52.598256,-2.096392
Greggs,Greggs,RM10 8RD,Barking and Dagenham,,51.5406723022461,0.14833399653435
Greggs,Greggs,RM8 1YT,Barking and Dagenham,,51.562039,0.123053
Greggs,Greggs,RM9 4SH,Barking and Dagenham,,51.538928,0.12701
Greggs,Greggs,IG11 8EJ,Barking and Dagenham,,51.537722,0.078877
Greggs,Greggs,EN5 5XQ,Barnet,,51.654514,-0.201337
Greggs,Greggs Bakery,HA8 7AR,Barnet,,51.61447,-0.27553
Greggs,Greggs Bakery,N3 1XP,Barnet,,51.603347,-0.191331
Greggs,Greggs Bakery,HA8 0LQ,Barnet,,51.60124,-0.266819
Greggs,Greggs Bakery,NW7 3LH,Barnet,,51.614637,-0.246751
Greggs,Greggs Bakery,N12 9QD,Barnet,,51.614089,-0.17594
Greggs,Greggs,DA6 7JH,Bexley,,51.456479,0.144421
Greggs,Greggs,DA1 4HA,Bexley,,51.451209,0.179509
Greggs,Greggs,DA8 1RE,Bexley,,51.480321,0.179918
Greggs,Greggs,DA14 6ED,Bexley,,51.426228,0.103633
Greggs,Greggs,NW9 9DY,Brent,,51.585632,-0.276132
Greggs,Greggs,HA9 7BH,Brent,,51.553305,-0.295197
Greggs,Greggs,NW6 6JE,Brent,,51.538004,-0.193952
Greggs,Greggs,BR1 1HG,Bromley,,51.403733,0.014837
Greggs,Greggs,BR5 2RB,Bromley,,51.403681,0.106264
Greggs,Greggs,SE20 7DS,Bromley,,51.414994,-0.052317
Greggs,Greggs,BR6 0SY,Bromley,,51.353591,0.106257
Greggs,Greggs,BR1 1LF,Bromley,,51.400535,0.017227
Greggs,Greggs,BR6 0LS,Bromley,,51.376324,0.099289
Greggs,Greggs,NW5 2TJ,Camden,,51.5497439,-0.1411342
Greggs,Greggs,WC2B 6DS,Camden,,51.5166736,-0.1188724
Greggs,Greggs,NW1 7JR,Camden,,51.5376521,-0.1419154
Greggs,Greggs,WC1B 4AR,Camden,,51.519984,-0.1217485
Greggs,Greggs,WC1V 6DR,Camden,,51.518504,-0.111974
Greggs,Greggs,EC1N 7TS,Camden,,51.5212815,-0.1101488
Greggs,Greggs PLC,W1T 4TL,Camden,,51.521983,-0.1360092
Greggs,Greggs,CR0 2TA,Croydon,,51.3789482116699,-0.10312200337648
Greggs,Greggs,CR0 6RD,Croydon,,51.3807754516602,-0.07243800163269
Greggs,Greggs,CR0 0JD,Croydon,,51.3410415649414,-0.01410300005227
Greggs,Greggs,CR0 1TG,Croydon,,51.3752174377441,-0.10147999972105
Greggs,Greggs,CR0 1NA,Croydon,,51.3711853027344,-0.10065600275993
Greggs,Greggs,CR7 6JA,Croydon,,51.3936729431152,-0.11389800161123
Greggs,Greggs,SE25 6EA,Croydon,,51.398494720459,-0.07593400031328
Greggs,Greggs Bakery,CR0 1LH,Croydon,,51.3749046325684,-0.09670899808407
Greggs,Greggs,EC3M 1BU,City of London Corporation,,51.510947,-0.084602
Greggs,Greggs,EC4M 7JN,City of London Corporation,,51.513805,-0.102181
Greggs,Greggs,EC2V 6AT,City of London Corporation,,51.513954,-0.094204
Greggs,Greggs,EC4N 6AP,City of London Corporation,,51.511372,-0.090263
Greggs,Greggs,W5 2NL,Ealing,,0.0,0.0
Greggs,Greggs,UB6 9PR,Ealing,,51.5278511047363,-0.35274600982666
Greggs,Greggs,UB1 1JY,Ealing,,51.5112533569336,-0.378073990345
Greggs,Greggs,W3 7DD,Ealing,,51.5146598815918,-0.24968500435352
Greggs,Greggs,W13 9BP,Ealing,,51.5098190307617,-0.32460400462151
Greggs,Greggs,UB2 4GB,Ealing,,51.5080947875977,-0.3476459980011
Greggs,Mead Greggs,UB6 9RP,Ealing,,51.5323602,-0.3710186
Greggs,Greggs,EN2 6BE,Enfield,,51.6519962,-0.0829451
Greggs,Greggs Of Enfield,EN3 4QA,Enfield,,51.643266,-0.038547
Greggs,Greggs Of Enfield,EN3 5AZ,Enfield,,51.656952,-0.047658
Greggs,Greggs Of Enfield,N14 4XA,Enfield,,51.648846,-0.129186
Greggs,Greggs Of Enfield,N9 0TT,Enfield,,51.623597,-0.058928
Greggs,Greggs Of Enfield,N9 8LP,Enfield,,51.628117,-0.046266
Greggs,Greggs Of Enfield,EN1 3LD,Enfield,,51.662334,-0.078442
Greggs,Greggs Of Enfield,N13 5TT,Enfield,,51.618954,-0.107201
Greggs,Greggs of Enfield,N14 5PA,Enfield,,51.63297,-0.1289
Greggs,Greggs Of Enfield,N9 9JJ,Enfield,,51.634113,-0.071138
Greggs,Greggs Of Enfield,N9 9JS,Enfield,,51.636471,-0.081154
Greggs,Greggs,SE9 1BJ,Greenwich,,51.4505649,0.0563874
Greggs,Greggs,SE10 9TZ,Greenwich,,51.4848311,0.0042613
Greggs,Greggs,SE10 9BJ,Greenwich,,51.4807806,-0.0097854
Greggs,Greggs,SE28 8RA,Greenwich,,51.5069744,0.1066841
Greggs,Greggs,SE18 1PP,Greenwich,,51.4871406555176,0.09128200262785
Greggs,Greggs,SE18 6LF,Greenwich,,51.4910376,0.0683789
Greggs,Greggs,SE18 6LQ,Greenwich,,51.4916395,0.0663749
Greggs,Greggs,SE2 9RH,Greenwich,,51.4900321,0.1211436
Greggs,Greggs,E8 2JS,Hackney,,51.547538,-0.075797
Greggs,Greggs,E8 1HY,Hackney,,51.548387,-0.055338
Greggs,Greggs,W6 9JG,Hammersmith and Fulham,,51.492392,-0.230327
Greggs,Greggs,SW6 1NS,Hammersmith and Fulham,,51.482625,-0.200101
Greggs,Greggs,W12 8LP,Hammersmith and Fulham,,51.504596,-0.219696
Greggs,Greggs,SW6 5SA,Hammersmith and Fulham,,51.474724,-0.206834
Greggs,Greggs,N22 6BH,Haringey,,51.591115,-0.104519
Greggs,Greggs,N22 6DS,Haringey,,51.596025,-0.109541
Greggs,Greggs,N8 8DU,Haringey,,51.578931,-0.124135
Greggs,Greggs,N15 4QD,Haringey,,51.587611,-0.06231
Greggs,Greggs,HA1 1JU,Harrow,,51.581173,-0.335376
Greggs,Greggs,RM1 3ED,Havering,,51.578156,0.181291
Greggs,Greggs,RM14 2TD,Havering,,51.5584297180176,0.2505350112915
Greggs,Greggs,RM1 3LD,Havering,,51.577032,0.183215
Greggs,Greggs,RM12 4RS,Havering,,51.55062,0.198134
Greggs,Greggs Bakers,RM12 6QX,Havering,,51.562035,0.219966
Greggs,Greggs Bakers,RM5 3PA,Havering,,51.599026,0.160978
Greggs,Greggs Bakers,RM1 1NL,Havering,,51.576907,0.182199
Greggs,Greggs Of Enfield,RM14 2AT,Havering,,51.555936,0.24933
Greggs,Greggs The Bakers,RM3 8DX,Havering,,51.606361,0.218532
Greggs,Greggs,HA4 0QP,Hillingdon,,51.560817,-0.381202
Greggs,Greggs,UB3 4BD,Hillingdon,,51.506664,-0.418613
Greggs,Greggs,UB10 9PG,Hillingdon,,51.551297,-0.448653
Greggs,Greggs,UB8 1JY,Hillingdon,,51.546819,-0.479539
Greggs,Greggs,UB11 1AA,Hillingdon,,51.512395,-0.444384
Greggs,Greggs,TW5 9NB,Hounslow,,51.4865837097168,-0.39611798524857
Greggs,Greggs,TW14 8BT,Hounslow,,51.453662,-0.4294818
Greggs,Greggs,TW3 1BL,Hounslow,,51.4689099,-0.3609235
Greggs,Greggs,TW8 8AT,Hounslow,,51.4830076,-0.3083498
Greggs,Greggs,W4 5TA,Hounslow,,51.4927202,-0.2632837
Greggs,Greggs,TW13 4AU,Hounslow,,51.4466685,-0.409943
Greggs,Greggs,TW13 6AL,Hounslow,,51.4403239,-0.3871328
Greggs,Greggs,TW3 1HG,Hounslow,,51.468677520752,-0.36387699842453
Greggs,Greggs @ Clockhouse Service Station,TW14 8RX,Hounslow,,51.4487838745117,-0.44850298762322
Greggs,Greggs in Forecourt,TW5 9NB,Hounslow,,51.4865837097168,-0.39611798524857
Greggs,"Greggs in Forecourt, Heston East",TW5 9NA,Hounslow,,51.4885559082031,-0.38788199424744
Greggs,Greggs,N7 8JE,Islington,,51.550379,-0.108995
Greggs,Greggs,N7 6AG,Islington,,51.558351,-0.118215
Greggs,Greggs,N5 1QJ,Islington,,51.553833,-0.098466
Greggs,Greggs,N4 2DD,Islington,,51.564581,-0.105261
Greggs,Greggs,N19 5QT,Islington,,51.564873,-0.134669
Greggs,Greggs,W11 1LJ,Kensington and Chelsea,,51.517235,-0.205843
Greggs,Greggs,SW5 9RD,Kensington and Chelsea,,51.492388,-0.19296
Greggs,Greggs,KT1 1JH,Kingston-Upon-Thames,,51.409634,-0.305794
Greggs,Greggs,KT9 1NU,Kingston-Upon-Thames,,51.367112,-0.307263
Greggs,Greggs,KT3 4EP,Kingston-Upon-Thames,,51.399846,-0.255236
Greggs,Greggs,KT1 1SS,Kingston-Upon-Thames,,51.411372,-0.3016695
Greggs,Greggs,KT6 4NS,Kingston-Upon-Thames,,51.392612,-0.30523
Greggs,"Greggs, Esso Petrol Station",SW20 0AB,Kingston-Upon-Thames,,51.4162864,-0.2512377
Greggs,Greggs,SW16 1BJ,Lambeth,,51.4327812194824,-0.12949399650097
Greggs,Greggs,SW4 7UG,Lambeth,,51.462559,-0.137145
Greggs,Greggs,SW9 9AE,Lambeth,,51.4711,-0.124601
Greggs,Greggs,SE27 9AF,Lambeth,,51.435263,-0.104402
Greggs,Greggs,SW9 8JX,Lambeth,,51.462401,-0.114305
Greggs,Greggs,SE1 7AB,Lambeth,,51.501495,-0.111726
Greggs,Greggs,SE13 6JG,Lewisham,,51.461985,-0.010786
Greggs,Greggs,BR1 4PH,Lewisham,,51.425209,-0.00417
Greggs,Greggs,SE8 4AA,Lewisham,,51.476858,-0.026138
Greggs,Greggs Bakers,SE6 4HQ,Lewisham,,51.44615,-0.019907
Greggs,Greggs South East,SE3 0AX,Lewisham,,51.46627,0.009024
Greggs,Greggs South East,SE13 7EP,Lewisham,,51.461741,-0.011761
Greggs,Greggs,CR4 3NA,Merton,,51.405464,-0.164426
Greggs,Greggs,SW19 7NH,Merton,,51.421059,-0.206346
Greggs,Greggs,SW19 1RE,Merton,,51.420206,-0.20415
Greggs,Greggs,SW20 0LA,Merton,,51.409681,-0.231049
Greggs,Greggs,SM4 5BE,Merton,,51.40274,-0.19398
Greggs,Greggs,E13 8EE,Newham,,51.52189,0.021028
Greggs,Greggs,E20 1EH,Newham,,51.544346,-0.006359
Greggs,Greggs,E6 1HZ,Newham,,51.536218,0.051929
Greggs,Greggs Bakers,E6 2HT,Newham,,51.536805,0.052302
Greggs,Greggs Of Enfield,E13 9AP,Newham,,51.536638,0.03453
Greggs,Greggs South East,E15 1XE,Newham,,51.5418357849121,-0.00044100001105
Greggs,Euro Garages Ltd (Greggs),E12 5HH,Redbridge,,51.562323,0.033872
Greggs,Greggs the Bakers,E18 1AY,Redbridge,,51.593842,0.024567
Greggs,Greggs The Bakers,IG7 4DJ,Redbridge,,51.608481,0.107382
Greggs,Greggs the Bakers,E11 2AE,Redbridge,,51.578248,0.026198
Greggs,Greggs the Bakers,IG1 1LX,Redbridge,,51.559721,0.075667
Greggs,Greggs the Bakers,IG6 2AF,Redbridge,,51.590528,0.081893
Greggs,Greggs the Bakers,IG1 2AF,Redbridge,,51.557709,0.070497
Greggs,Greggs,,Richmond-Upon-Thames,,51.4622643,-0.302573
Greggs,Greggs,,Richmond-Upon-Thames,,51.4465865,-0.3285835
Greggs,Greggs,,Richmond-Upon-Thames,,51.4310406,-0.3067949
Greggs,Greggs PLC,,Richmond-Upon-Thames,,51.4509074,-0.3575269
Greggs,Greggs,SE1 6TB,Southwark,,51.494516,-0.099985
Greggs,Greggs,SE1 9GP,Southwark,,0.0,0.0
Greggs,Greggs,SE15 5EW,Southwark,,51.472746,-0.068693
Greggs,Greggs bakery,SE17 1RL,Southwark,,51.488718,-0.09566
Greggs,Greggs plc,SE1 4TW,Southwark,,51.496493,-0.082774
Greggs,Greggs the bakers,SE16 3JU,Southwark,,51.488181,-0.056388
Greggs,Greggs the bakers,SE5 8RZ,Southwark,,51.473198,-0.093556
Greggs,Greggs,KT4 8DY,Sutton,,51.378664,-0.24229
Greggs,Greggs,SM1 1NR,Sutton,,51.365831,-0.1939007
Greggs,Greggs,SM3 8HW,Sutton,,51.371562,-0.226959
Greggs,Greggs,SM1 1EZ,Sutton,,51.361829,-0.192027
Greggs,Greggs,SM6 0LY,Sutton,,51.3586,-0.149955
Greggs,Greggs,E1 1DB,Tower Hamlets,,51.519183,-0.060978
Greggs,Greggs The Bakers,E14 6AQ,Tower Hamlets,,51.512754,-0.014297
Greggs,Greggs The Bakers,E3 2RW,Tower Hamlets,,51.533712,-0.027342
Greggs,Greggs The Bakers,E2 0RN,Tower Hamlets,,51.528548,-0.047634
Greggs,Greggs,E4 7BJ,Waltham Forest,,51.631172,0.003471
Greggs,Greggs,E4 6SH,Waltham Forest,,51.617556,-0.018132
Greggs,Greggs,E17 7BU,Waltham Forest,,51.58419,-0.024319
Greggs,Greggs,SW11 1PN,Wandsworth,,51.46329,-0.168139
Greggs,Greggs,SW11 2PH,Wandsworth,,51.468943,-0.170792
Greggs,Greggs,SW15 4DQ,Wandsworth,,51.449459,-0.24212
Greggs,Greggs,SW17 9PA,Wandsworth,,51.428,-0.167364
Greggs,Greggs,SW15 1SU,Wandsworth,,51.46209,-0.216255
Greggs,Greggs,SW18 4TF,Wandsworth,,51.455413,-0.194205
Greggs,Greggs Bakeries,SW18 5LS,Wandsworth,,51.44459,-0.205669
Greggs,Greggs PLC,SW12 9AU,Wandsworth,,51.444321,-0.151817
Greggs,Greggs,NW8 8HA,Westminster,,51.522376,-0.171362
Greggs,Greggs,SW1V 3EN,Westminster,,51.487567,-0.141657
Greggs,Greggs,W1W 6QG,Westminster,,51.519625,-0.142774
Greggs,Greggs,WC2R 1JA,Westminster,,51.511483,-0.118245
Greggs,Greggs,SW1H 0PH,Westminster,,51.498349,-0.135441
Greggs,Greggs,SW1W 9TP,Westminster,,51.4923858642578,-0.14837600290775
Greggs,Greggs,LL30 2NN,Conwy,,53.323943,-3.828812
Greggs,Greggs,LL30 2NN,Conwy,,53.323943,-3.828812
Greggs,Greggs,NP22 3EJ,Blaenau Gwent,,51.7749443054199,-3.24530100822449
Greggs,Greggs,NP23 4AB,Blaenau Gwent,,51.79846,-3.175267
Greggs,Greggs,NP13 1DA,Blaenau Gwent,,51.730879,-3.134258
Greggs,Greggs Plc,NP23 6HL,Blaenau Gwent,,51.77983,-3.207225
Greggs,Greggs,NP22 3EJ,Blaenau Gwent,,51.7749443054199,-3.24530100822449
Greggs,Greggs,NP23 6HL,Blaenau Gwent,,51.77983,-3.207225
Greggs,Greggs,NP23 4AB,Blaenau Gwent,,51.79846,-3.175267
Greggs,Greggs,NP13 1DA,Blaenau Gwent,,51.730879,-3.134258
Greggs,Greggs,CF31 2LL,Pen-y-bont ar Ogwr,,51.5074272155762,-3.56063389778137
Greggs,Greggs,CF31 1ET,Pen-y-bont ar Ogwr,,51.5066909790039,-3.57804489135742
Greggs,Greggs,CF36 3AP,Pen-y-bont ar Ogwr,,51.4774971008301,-3.70375990867615
Greggs,Greggs,CF34 9BT,Pen-y-bont ar Ogwr,,51.6089286804199,-3.65971899032593
Greggs,Greggs,CF36 5DQ,Pen-y-bont ar Ogwr,,51.4829521179199,-3.6832959651947
Greggs,Greggs,CF35 5NH,Pen-y-bont ar Ogwr,,51.5226173400879,-3.50055599212646
Greggs,Greggs,CF31 3XY,Pen-y-bont ar Ogwr,,51.4946212768555,-3.56147909164429
Greggs,Greggs,CF32 9SU,Pen-y-bont ar Ogwr,,51.5323219299316,-3.57770609855652
Greggs,Greggs,CF31 1DD,Pen-y-bont ar Ogwr,,51.5038642883301,-3.57546901702881
Greggs,Greggs,,Pen-y-bont ar Ogwr,,51.5263316918337,-3.6897133468674
Greggs,Greggs Bakery Shop,CF31 3RF,Pen-y-bont ar Ogwr,,51.5005187988281,-3.5616090297699
Greggs,Greggs,CF31 2LL,Bridgend,,51.5074272155762,-3.56063389778137
Greggs,Greggs,CF31 1ET,Bridgend,,51.5066909790039,-3.57804489135742
Greggs,Greggs,CF36 3AP,Bridgend,,51.4774971008301,-3.70375990867615
Greggs,Greggs,CF34 9BT,Bridgend,,51.6089286804199,-3.65971899032593
Greggs,Greggs,CF36 5DQ,Bridgend,,51.4829521179199,-3.6832959651947
Greggs,Greggs,CF35 5NH,Bridgend,,51.5226173400879,-3.50055599212646
Greggs,Greggs,CF31 3XY,Bridgend,,51.4946212768555,-3.56147909164429
Greggs,Greggs,CF32 9SU,Bridgend,,51.5323219299316,-3.57770609855652
Greggs,Greggs,CF31 1DD,Bridgend,,51.5038642883301,-3.57546901702881
Greggs,Greggs,,Bridgend,,51.5263316918337,-3.6897133468674
Greggs,Greggs Bakery Shop,CF31 3RF,Bridgend,,51.5005187988281,-3.5616090297699
Greggs,Bangor Service Station Greggs/ Subway,LL57 4BG,Gwynedd,,53.206228,-4.106778
Greggs,Greggs,LL57 1PB,Gwynedd,,53.226911,-4.124784
Greggs,Bangor Service Station Greggs/ Subway,LL57 4BG,Gwynedd,,53.206228,-4.106778
Greggs,Greggs,LL57 1PB,Gwynedd,,53.226911,-4.124784
Greggs,Greggs,NP11 4EZ,Caerffili,,51.6648597717285,-3.14468097686768
Greggs,Greggs,NP12 1AF,Caerffili,,51.666306,-3.195427
Greggs,Greggs,CF83 1FP,Caerffili,,51.5737328,-3.2204545
Greggs,Greggs,CF83 1NU,Caerffili,,51.576324,-3.21663
Greggs,Greggs,NP11 6BW,Caerffili,,51.607221,-3.100847
Greggs,Greggs,CF83 8GB,Caerffili,,51.591925,-3.176857
Greggs,Greggs,CF83 8DU,Caerffili,,51.591161,-3.203457
Greggs,Greggs,CF81 8QT,Caerffili,,51.688899,-3.228804
Greggs,Greggs,NP12 1AF,Caerphilly,,51.666306,-3.195427
Greggs,Greggs,NP11 6BW,Caerphilly,,51.607221,-3.100847
Greggs,Greggs,CF83 1FP,Caerphilly,,51.5737328,-3.2204545
Greggs,Greggs,NP11 4EZ,Caerphilly,,51.6648597717285,-3.14468097686768
Greggs,Greggs,CF83 8DU,Caerphilly,,51.591161,-3.203457
Greggs,Greggs,CF83 1NU,Caerphilly,,51.576324,-3.21663
Greggs,Greggs,CF83 8GB,Caerphilly,,51.591925,-3.176857
Greggs,Greggs,CF81 8QT,Caerphilly,,51.688899,-3.228804
Greggs,Greggs,CF10 1ER,Caerdydd,,51.4772186279297,-3.18012189865112
Greggs,Greggs,CF14 1DA,Caerdydd,,51.512938,-3.219421
Greggs,Greggs,CF24 1PX,Caerdydd,,51.48624,-3.158333
Greggs,Greggs,CF11 9AJ,Caerdydd,,51.4813919067383,-3.19801497459412
Greggs,Greggs,CF10 1FF,Caerdydd,,51.4778518676758,-3.17640900611877
Greggs,Greggs,CF10 3BA,Caerdydd,,51.4858131408691,-3.1760950088501
Greggs,Greggs,CF24 3LJ,Caerdydd,,51.4932861328125,-3.16967606544495
Greggs,Greggs,CF10 2BW,Caerdydd,,51.4816851,-3.1770369
Greggs,Greggs,CF24 3PA,Caerdydd,,51.4956932067871,-3.16543006896973
Greggs,Greggs,CF3 5YR,Caerdydd,,51.5212821960449,-3.11948490142822
Greggs,Greggs,CF14 6RG,Caerdydd,,51.5298652648926,-3.20596194267273
Greggs,Greggs,CF3 4AJ,Caerdydd,,51.508936,-3.132467
Greggs,Greggs,CF10 1GJ,Caerdydd,,51.4812316894531,-3.1782820224762
Greggs,Greggs,CF10 2GP,Caerdydd,,51.482778,-3.170948
Greggs,Greggs,CF24 5PF,Caerdydd,,51.4747085571289,-3.15418291091919
Greggs,Greggs,,Caerdydd,,0.0,0.0
Greggs,Greggs,CF5 5BY,Caerdydd,,51.4755525,-3.2508486
Greggs,Greggs,CF23 7XH,Caerdydd,,51.523104,-3.139291
Greggs,Greggs,CF10 2DQ,Caerdydd,,51.4808616638184,-3.1766300201416
Greggs,Greggs,CF14 5DN,Caerdydd,,51.5223799,-3.1951527
Greggs,Greggs Bargain Bakery,CF5 4LE,Caerdydd,,51.481323,-3.244154
Greggs,Greggs of Treforest,CF24 4AA,Caerdydd,,51.4876594543457,-3.1737380027771
Greggs,Greggs Plc,CF10 1AT,Caerdydd,,51.4800415039063,-3.17921590805054
Greggs,Greggs Plc,CF24 4NR,Caerdydd,,51.496696472168,-3.18089890480042
Greggs,Greggs Plc,CF23 9FF,Caerdydd,,51.4992637634277,-3.1388258934021
Greggs,Greggs Plc,CF10 5BZ,Caerdydd,,51.4634819030762,-3.16537189483643
Greggs,Greggs the Bakers,CF5 4LL,Caerdydd,,51.4764785766602,-3.25480699539185
Greggs,Greggs,CF10 1ER,Cardiff,,51.4772186279297,-3.18012189865112
Greggs,Greggs,CF14 1DA,Cardiff,,51.512938,-3.219421
Greggs,Greggs,CF24 1PX,Cardiff,,51.48624,-3.158333
Greggs,Greggs,CF11 9AJ,Cardiff,,51.4813919067383,-3.19801497459412
Greggs,Greggs,CF10 1FF,Cardiff,,51.4778518676758,-3.17640900611877
Greggs,Greggs,CF10 3BA,Cardiff,,51.4858131408691,-3.1760950088501
Greggs,Greggs,CF24 3LJ,Cardiff,,51.4932861328125,-3.16967606544495
Greggs,Greggs,CF10 2BW,Cardiff,,51.4816851,-3.1770369
Greggs,Greggs,CF24 3PA,Cardiff,,51.4956932067871,-3.16543006896973
Greggs,Greggs,CF3 5YR,Cardiff,,51.5212821960449,-3.11948490142822
Greggs,Greggs,CF14 6RG,Cardiff,,51.5298652648926,-3.20596194267273
Greggs,Greggs,CF3 4AJ,Cardiff,,51.508936,-3.132467
Greggs,Greggs,CF10 1GJ,Cardiff,,51.4812316894531,-3.1782820224762
Greggs,Greggs,CF10 2GP,Cardiff,,51.482778,-3.170948
Greggs,Greggs,CF24 5PF,Cardiff,,51.4747085571289,-3.15418291091919
Greggs,Greggs,,Cardiff,,0.0,0.0
Greggs,Greggs,CF5 5BY,Cardiff,,51.4755525,-3.2508486
Greggs,Greggs,CF23 7XH,Cardiff,,51.523104,-3.139291
Greggs,Greggs,CF10 2DQ,Cardiff,,51.4808616638184,-3.1766300201416
Greggs,Greggs,CF14 5DN,Cardiff,,51.5223799,-3.1951527
Greggs,Greggs Bargain Bakery,CF5 4LE,Cardiff,,51.481323,-3.244154
Greggs,Greggs of Treforest,CF24 4AA,Cardiff,,51.4876594543457,-3.1737380027771
Greggs,Greggs Plc,CF10 1AT,Cardiff,,51.4800415039063,-3.17921590805054
Greggs,Greggs Plc,CF24 4NR,Cardiff,,51.496696472168,-3.18089890480042
Greggs,Greggs Plc,CF23 9FF,Cardiff,,51.4992637634277,-3.1388258934021
Greggs,Greggs Plc,CF10 5BZ,Cardiff,,51.4634819030762,-3.16537189483643
Greggs,Greggs the Bakers,CF5 4LL,Cardiff,,51.4764785766602,-3.25480699539185
Greggs,Greggs,SY23 1DE,Ceredigion,,52.414747,-4.084748
Greggs,Greggs,SA48 7BB,Ceredigion,,52.1131362915039,-4.08007907867432
Greggs,Greggs,SA43 1JS,Ceredigion,,52.084832,-4.659741
Greggs,Greggs,SY23 3JQ,Ceredigion,,52.4025917053223,-4.04308700561523
Greggs,Greggs,SY23 1DE,Ceredigion,,52.414747,-4.084748
Greggs,Greggs,SA43 1JS,Ceredigion,,52.084832,-4.659741
Greggs,Greggs,SY23 3JQ,Ceredigion,,52.4025917053223,-4.04308700561523
Greggs,Greggs Plc,SA48 7BB,Ceredigion,,52.1131362915039,-4.08007907867432
Greggs,Greggs,SA14 9UY,Sir Gaerfyrddin,,51.6763229370117,-4.13889694213867
Greggs,Greggs,SA18 3DB,Sir Gaerfyrddin,,51.792215,-3.988127
Greggs,Greggs,SA15 1SH,Sir Gaerfyrddin,,51.681874,-4.159469
Greggs,Greggs Plc,SA31 1QL,Sir Gaerfyrddin,,51.857128,-4.3082
Greggs,Greggs PLC,SA31 2BG,Sir Gaerfyrddin,,51.8499450683594,-4.30752801895142
Greggs,Greggs,SA14 9UY,Carmarthenshire,,51.6763229370117,-4.13889694213867
Greggs,GREGGS,SA18 3DB,Carmarthenshire,,51.792215,-3.988127
Greggs,GREGGS PLC,SA31 1QL,Carmarthenshire,,51.857128,-4.3082
Greggs,GREGGS PLC,SA15 1SH,Carmarthenshire,,51.681874,-4.159469
Greggs,Greggs PLC,SA31 2BG,Carmarthenshire,,51.8499450683594,-4.30752801895142
Greggs,Greggs,LL18 1TH,Sir Ddinbych,,53.32082,-3.489789
Greggs,Greggs,,Sir Ddinbych,,53.3306850011087,-3.44522500090543
Greggs,Greggs,LL18 1LQ,Sir Ddinbych,,0.0,0.0
Greggs,Greggs,LL18 1TH,Denbighshire,,53.32082,-3.489789
Greggs,Greggs,,Denbighshire,,53.3306850011087,-3.44522500090543
Greggs,Greggs,LL18 1LQ,Denbighshire,,0.0,0.0
Greggs,Greggs,CH7 1AZ,Sir y Fflint,,53.1669321,-3.1412415
Greggs,Greggs,CH7 6HB,Sir y Fflint,,53.1929588317871,-3.08206105232239
Greggs,Greggs,CH5 2NY,Sir y Fflint,,53.227165222168,-2.99743390083313
Greggs,Greggs,CH8 8RF,Sir y Fflint,,53.2737312316895,-3.30528211593628
Greggs,Greggs,CH7 1UE,Sir y Fflint,,53.1670417785645,-3.13403511047363
Greggs,"Greggs, A55 Westbound",CH8 8DF,Sir y Fflint,,53.2276496887207,-3.1710638999939
Greggs,Greggs,CH7 1AZ,Flintshire,,53.1669321,-3.1412415
Greggs,Greggs,CH7 6HB,Flintshire,,53.1929588317871,-3.08206105232239
Greggs,Greggs,CH5 2NY,Flintshire,,53.227165222168,-2.99743390083313
Greggs,Greggs,CH8 8RF,Flintshire,,53.2737312316895,-3.30528211593628
Greggs,Greggs,CH7 1UE,Flintshire,,53.1670417785645,-3.13403511047363
Greggs,"Greggs, A55 Westbound",CH8 8DF,Flintshire,,53.2276496887207,-3.1710638999939
Greggs,Greggs,CF47 9SB,Merthyr Tudful,,51.762427,-3.379181
Greggs,Greggs,CF47 8DE,Merthyr Tudful,,51.744906,-3.378097
Greggs,Greggs Cafe & Bakery,CF47 8EL,Merthyr Tudful,,51.74516,-3.380205
Greggs,Greggs,CF47 9SB,Merthyr Tydfil,,51.762427,-3.379181
Greggs,Greggs,CF47 8DE,Merthyr Tydfil,,51.744906,-3.378097
Greggs,Greggs Cafe & Bakery,CF47 8EL,Merthyr Tydfil,,51.74516,-3.380205
Greggs,Greggs,NP7 5RU,Sir Fynwy,,51.873294,-2.959482
Greggs,Greggs,NP25 3EW,Sir Fynwy,,51.810547,-2.718385
Greggs,Greggs Plc,NP16 5LQ,Sir Fynwy,,51.641436,-2.675058
Greggs,Greggs Plc,NP26 4BG,Sir Fynwy,,51.591407,-2.752021
Greggs,Greggs,NP25 3EW,Monmouthshire,,51.810547,-2.718385
Greggs,Greggs,NP16 5LQ,Monmouthshire,,51.641436,-2.675058
Greggs,Greggs,NP7 5RU,Monmouthshire,,51.873294,-2.959482
Greggs,Greggs Plc,NP26 4BG,Monmouthshire,,51.591407,-2.752021
Greggs,Greggs,SA8 4ED,Castell-nedd Port Talbot,,51.719281,-3.849835
Greggs,Greggs,SA13 1PB,Castell-nedd Port Talbot,,51.596886,-3.785456
Greggs,Greggs PLC 00502851,SA10 7NG,Castell-nedd Port Talbot,,51.6624870300293,-3.82841897010803
Greggs,Greggs The Bakers,SA11 3EN,Castell-nedd Port Talbot,,51.663706,-3.8038
Greggs,Greggs PLC 00502851,SA10 7NG,Neath Port Talbot,,51.6624870300293,-3.82841897010803
Greggs,Greggs PLC 00502851,SA11 3EN,Neath Port Talbot,,51.663706,-3.8038
Greggs,Greggs PLC 00502851,SA8 4ED,Neath Port Talbot,,51.719281,-3.849835
Greggs,Greggs PLC 00502851,SA13 1PB,Neath Port Talbot,,51.596886,-3.785456
Greggs,Greggs,NP19 9HG,Casnewydd,,51.594562,-2.93029
Greggs,Greggs,NP19 7FW,Casnewydd,,51.5960886,-2.9827069
Greggs,Greggs,NP10 8BB,Casnewydd,,51.559578,-3.036194
Greggs,Greggs,NP20 1GH,Casnewydd,,51.588335,-2.996605
Greggs,Greggs,NP20 6WB,Casnewydd,,51.60896,-3.007281
Greggs,Greggs,NP20 1LP,Casnewydd,,51.585271,-2.994157
Greggs,Greggs,NP20 1DU,Casnewydd,,0.0,0.0
Greggs,Greggs,NP20 2BL,Casnewydd,,51.580192,-2.9854
Greggs,Greggs,NP19 4ED,Casnewydd,,0.0,0.0
Greggs,Greggs @ Stow Hill Service Station,NP20 4GA,Casnewydd,,51.582779,-3.001737
Greggs,Greggs @ Tesco Extra,NP19 4TX,Casnewydd,,51.575704,-2.950772
Greggs,Greggs,NP19 9HG,Newport,,51.594562,-2.93029
Greggs,Greggs,NP19 7FW,Newport,,51.5960886,-2.9827069
Greggs,Greggs,NP10 8BB,Newport,,51.559578,-3.036194
Greggs,Greggs,NP20 1GH,Newport,,51.588335,-2.996605
Greggs,Greggs,NP20 6WB,Newport,,51.60896,-3.007281
Greggs,Greggs,NP20 1LP,Newport,,51.585271,-2.994157
Greggs,Greggs,NP20 1DU,Newport,,0.0,0.0
Greggs,Greggs,NP20 2BL,Newport,,51.580192,-2.9854
Greggs,Greggs,NP19 4ED,Newport,,0.0,0.0
Greggs,Greggs @ Stow Hill Service Station,NP20 4GA,Newport,,51.582779,-3.001737
Greggs,Greggs @ Tesco Extra,NP19 4TX,Newport,,51.575704,-2.950772
Greggs,Greggs,SA61 2AL,Sir Benfro,,51.8030166625977,-4.96869897842407
Greggs,Greggs,SA72 6AH,Sir Benfro,,51.69371,-4.94207
Greggs,Greggs,SA73 2HA,Sir Benfro,,51.713171,-5.035025
Greggs,Greggs,SA70 7AE,Sir Benfro,,0.0,0.0
Greggs,Greggs,SA61 2AL,Pembrokeshire,,51.8030166625977,-4.96869897842407
Greggs,Greggs,SA72 6AH,Pembrokeshire,,51.69371,-4.94207
Greggs,Greggs,SA73 2HA,Pembrokeshire,,51.713171,-5.035025
Greggs,Greggs,SA70 7AE,Pembrokeshire,,0.0,0.0
Greggs,Greggs,LD3 7JP,Powys,,51.947756,-3.390245
Greggs,Greggs,SY16 2NP,Powys,,52.514802,-3.316224
Greggs,Greggs,SA9 1NS,Powys,,51.777368,-3.758566
Greggs,Greggs,SY21 7RZ,Powys,,52.660461,-3.148005
Greggs,Greggs,SY16 1DW,Powys,,52.515808,-3.304981
Greggs,Greggs,LD1 5BB,Powys,,52.2414538,-3.3789733
Greggs,Greggs,LD2 3SS,Powys,,52.1526832580566,-3.40178203582764
Greggs,The Halt Greggs,LD1 6NN,Powys,,52.2609634399414,-3.49710488319397
Greggs,Greggs,LD3 7JP,Powys,,51.947756,-3.390245
Greggs,Greggs,SY16 2NP,Powys,,52.514802,-3.316224
Greggs,Greggs,SA9 1NS,Powys,,51.777368,-3.758566
Greggs,Greggs,SY21 7RZ,Powys,,52.660461,-3.148005
Greggs,Greggs,SY16 1DW,Powys,,52.515808,-3.304981
Greggs,Greggs,LD1 5BB,Powys,,52.2414538,-3.3789733
Greggs,Greggs,LD2 3SS,Powys,,52.1526832580566,-3.40178203582764
Greggs,The Halt Greggs,LD1 6NN,Powys,,52.2609634399414,-3.49710488319397
Greggs,Greggs,CF39 9PY,Rhondda Cynon Taf,,51.611647,-3.407722
Greggs,Greggs,CF44 7LB,Rhondda Cynon Taf,,51.712734,-3.444686
Greggs,Greggs,CF43 4RR,Rhondda Cynon Taf,,51.661521,-3.447944
Greggs,Greggs,CF40 1AL,Rhondda Cynon Taf,,51.621749,-3.453799
Greggs,Greggs,CF37 4SU,Rhondda Cynon Taf,,51.602494,-3.34005
Greggs,Greggs,CF72 9EA,Rhondda Cynon Taf,,51.522706,-3.391254
Greggs,Greggs,CF42 6AU,Rhondda Cynon Taf,,51.660497,-3.507796
Greggs,Greggs,CF72 8AD,Rhondda Cynon Taf,,51.537063,-3.385406
Greggs,Greggs,CF45 3PG,Rhondda Cynon Taf,,51.683101,-3.379242
Greggs,Greggs,CF44 0AH,Rhondda Cynon Taf,,51.702034,-3.420352
Greggs,Greggs,CF37 5TT,Rhondda Cynon Taf,,51.571709,-3.290011
Greggs,Greggs,CF37 5TT,Rhondda Cynon Taf,,51.5708923339844,-3.29079604148865
Greggs,Greggs,CF72 9WW,Rhondda Cynon Taf,,0.0,0.0
Greggs,Greggs,CF44 7LB,Rhondda Cynon Taf,,51.712734,-3.444686
Greggs,Greggs,CF37 4SU,Rhondda Cynon Taf,,51.602494,-3.34005
Greggs,Greggs,CF45 3PG,Rhondda Cynon Taf,,51.683101,-3.379242
Greggs,Greggs,CF40 1AL,Rhondda Cynon Taf,,51.621749,-3.453799
Greggs,Greggs,CF72 9EA,Rhondda Cynon Taf,,51.522706,-3.391254
Greggs,Greggs,CF43 4RR,Rhondda Cynon Taf,,51.661521,-3.447944
Greggs,Greggs,CF39 9PY,Rhondda Cynon Taf,,51.611647,-3.407722
Greggs,Greggs,CF42 6AU,Rhondda Cynon Taf,,51.660497,-3.507796
Greggs,Greggs,CF72 8AD,Rhondda Cynon Taf,,51.537063,-3.385406
Greggs,Greggs,CF37 5TT,Rhondda Cynon Taf,,51.5708923339844,-3.29079604148865
Greggs,Greggs,CF72 9WW,Rhondda Cynon Taf,,0.0,0.0
Greggs,Greggs,CF44 0AH,Rhondda Cynon Taf,,51.702034,-3.420352
Greggs,Greggs,CF37 5TT,Rhondda Cynon Taf,,51.571709,-3.290011
Greggs,Greggs,SA4 4BP,Abertawe,,51.669017,-4.039604
Greggs,Greggs,SA6 8PS,Abertawe,,51.664065,-3.913955
Greggs,Greggs,SA1 3AA,Abertawe,,51.619422,-3.944318
Greggs,Greggs,SA1 3BL,Abertawe,,51.619432,-3.947006
Greggs,Greggs,SA6 8AB,Abertawe,,51.664695,-3.925477
Greggs,Greggs,SA3 4AT,Abertawe,,51.5758835,-3.9991524
Greggs,Greggs,SA1 8AP,Abertawe,,51.6245994567871,-3.93809700012207
Greggs,Greggs,SA5 4EB,Abertawe,,51.642627,-3.987023
Greggs,Greggs,SA4 9GT,Abertawe,,51.6792526245117,-3.99504899978638
Greggs,Greggs,SA1 3QF,Abertawe,,0.0,0.0
Greggs,"Greggs,",SA7 9EH,Abertawe,,51.656774,-3.908905
Greggs,Greggs,SA1 3AA,Swansea,,51.619422,-3.944318
Greggs,Greggs,SA1 8AP,Swansea,,51.6245994567871,-3.93809700012207
Greggs,Greggs,SA1 3BL,Swansea,,51.619432,-3.947006
Greggs,Greggs,SA3 4AT,Swansea,,51.5758835,-3.9991524
Greggs,Greggs,SA6 8PS,Swansea,,51.664065,-3.913955
Greggs,Greggs,SA6 8AB,Swansea,,51.664695,-3.925477
Greggs,Greggs,SA4 4BP,Swansea,,51.669017,-4.039604
Greggs,Greggs,SA4 9GT,Swansea,,51.6792526245117,-3.99504899978638
Greggs,Greggs,SA5 4EB,Swansea,,51.642627,-3.987023
Greggs,Greggs,SA7 9EH,Swansea,,51.656774,-3.908905
Greggs,Greggs,SA1 3QF,Swansea,,0.0,0.0
Greggs,"Folly Tower Service Station incorporating Greggs, Subway and Spar",NP4 0XB,Torfaen,,51.692741,-3.021047
Greggs,Greggs,NP44 1PE,Torfaen,,51.652058,-3.021708
Greggs,Greggs,NP44 1PN,Torfaen,,51.654593,-3.020739
Greggs,Greggs,NP44 1QR,Torfaen,,51.653638,-3.022033
Greggs,Greggs,NP4 6LR,Torfaen,,51.703622,-3.042464
Greggs,"Folly Tower Service Station incorporating Greggs, Subway and Spar",NP4 0XB,Torfaen,,51.692741,-3.021047
Greggs,Greggs,NP44 1PE,Torfaen,,51.652058,-3.021708
Greggs,Greggs,NP44 1QR,Torfaen,,51.653638,-3.022033
Greggs,Greggs,NP44 1PN,Torfaen,,51.654593,-3.020739
Greggs,Greggs,NP4 6LR,Torfaen,,51.703622,-3.042464
Greggs,Greggs,CF61 1XA,Bro Morgannwg,,51.408748626709,-3.48281908035278
Greggs,Greggs,CF71 7AE,Bro Morgannwg,,51.462171,-3.448403
Greggs,Greggs,CF62 5TQ,Bro Morgannwg,,51.390989,-3.276713
Greggs,Greggs Bargain Bakery,CF63 4HE,Bro Morgannwg,,51.405278,-3.269203
Greggs,Greggs Of Treforest,CF63 4HP,Bro Morgannwg,,51.406402,-3.265036
Greggs,Greggs Of Treforest,CF64 1JH,Bro Morgannwg,,51.438981,-3.175208
Greggs,Greggs,CF61 1XA,Vale of Glamorgan,,51.408748626709,-3.48281908035278
Greggs,Greggs,CF71 7AE,Vale of Glamorgan,,51.462171,-3.448403
Greggs,Greggs,CF62 5TQ,Vale of Glamorgan,,51.390989,-3.276713
Greggs,Greggs Bargain Bakery,CF63 4HE,Vale of Glamorgan,,51.405278,-3.269203
Greggs,Greggs Of Treforest,CF63 4HP,Vale of Glamorgan,,51.406402,-3.265036
Greggs,Greggs Of Treforest,CF64 1JH,Vale of Glamorgan,,51.438981,-3.175208
Greggs,Greggs,LL11 1SA,Wrecsam,,53.0467376708984,-2.99563407897949
Greggs,Greggs,LL11 1BE,Wrecsam,,53.0456583,-2.9932226
Greggs,Greggs,LL14 6EQ,Wrecsam,,52.9864501953125,-3.04992890357971
Greggs,Greggs,LL11 1SA,Wrexham,,53.0467376708984,-2.99563407897949
Greggs,Greggs,LL11 1BE,Wrexham,,53.0456583,-2.9932226
Greggs,Greggs,LL14 6EQ,Wrexham,,52.9864501953125,-3.04992890357971
Greggs,Greggs,MK40 1TP,Bedford,,52.136023,-0.468955
Greggs,Greggs,MK40 1LN,Bedford,,52.137908,-0.470045
Greggs,Greggs,MK44 3BE,Bedford,,52.185858,-0.303701
Greggs,Greggs,LU5 5ES,Central Bedfordshire,,51.904968,-0.519372
Greggs,Greggs,SG18 8AP,Central Bedfordshire,,52.086538,-0.265331
Greggs,Greggs,LU5 6HR,Central Bedfordshire,,51.947446,-0.503147
Greggs,Greggs (Forecourt kiosk),LU5 6HP,Central Bedfordshire,,51.948264,-0.503804
Greggs,Marston Mortaine Greggs,MK43 0PZ,Central Bedfordshire,,52.064135,-0.551971
Greggs,Crewe Greggs,CW2 5PT,Cheshire East,,53.0688629150391,-2.33724498748779
Greggs,Greggs,CW1 6FL,Cheshire East,,53.0866241455078,-2.42953395843506
Greggs,Greggs,SK9 1DT,Cheshire East,,53.32625,-2.231924
Greggs,Greggs,CW1 2HD,Cheshire East,,53.098834,-2.440931
Greggs,Greggs,CW12 1AP,Cheshire East,,53.163793,-2.214129
Greggs,Greggs,SK12 1RD,Cheshire East,,53.348941,-2.119729
Greggs,Greggs,SK9 3LQ,Cheshire East,,53.350003,-2.214672
Greggs,Greggs,SK11 6AJ,Cheshire East,,53.260342,-2.126451
Greggs,Greggs,CW1 5NP,Cheshire East,,53.093263,-2.415175
Greggs,Greggs,CW11 4SP,Cheshire East,,53.1523208618164,-2.35116291046143
Greggs,Greggs (Forecourt South),WA16 0TL,Cheshire East,,53.300873,-2.401642
Greggs,Greggs (South),WA16 0TL,Cheshire East,,53.300873,-2.401642
Greggs,Greggs,CH2 4QB,Cheshire West and Chester,,53.271783,-2.811827
Greggs,Greggs,CW9 5LA,Cheshire West and Chester,,53.262301,-2.512338
Greggs,Greggs,CH1 3JJ,Cheshire West and Chester,,53.192391,-2.888755
Greggs,Greggs,CH1 4QG,Cheshire West and Chester,,53.1974143981934,-2.91403698921204
Greggs,Greggs,CH4 9DE,Cheshire West and Chester,,53.1629486083984,-2.90820407867432
Greggs,Greggs Bakery,CH65 0AL,Cheshire West and Chester,,53.27865,-2.900818
Greggs,Greggs plc,CW7 1BA,Cheshire West and Chester,,53.191743,-2.527526
Greggs,Greggs Red Ensign,CH1 6JS,Cheshire West and Chester,,53.233122,-2.942469
Greggs,Saltash Greggs,PL12 6LF,Cornwall,,50.4178123474121,-4.23376607894897
Greggs,"Euro Garages incl Greggs, Spar & Subway",DL17 8RU,Durham,,54.704354,-1.567565
Greggs,Greggs,DL17 8JN,Durham,,54.689019,-1.556389
Greggs,Greggs,SR8 2HY,Durham,,54.764925,-1.368841
Greggs,Greggs,DL15 9UA,Durham,,54.714952,-1.746474
Greggs,Greggs,DH1 5AP,Durham,,54.792747,-1.591242
Greggs,Greggs,DL12 8LY,Durham,,54.543843,-1.923501
Greggs,Greggs,DL16 6AB,Durham,,54.699716,-1.601441
Greggs,Greggs,DH1 2WP,Durham,,54.776112,-1.540761
Greggs,Greggs,DL14 7JQ,Durham,,54.664415,-1.67614
Greggs,Greggs,DH3 3BD,Durham,,54.857004,-1.573708
Greggs,Greggs,SR8 1BP,Durham,,54.759899,-1.334747
Greggs,Greggs,DH9 0HU,Durham,,54.869493,-1.699072
Greggs,Greggs,DL5 4DP,Durham,,54.620477,-1.571676
Greggs,Greggs,DH1 5GB,Durham,,54.8067512512207,-1.58178305625916
Greggs,Greggs,DH8 5QJ,Durham,,54.85202,-1.832618
Greggs,Greggs,DH1 3NP,Durham,,54.7764,-1.575332
Greggs,Greggs,DL13 4DH,Durham,,54.745153,-1.81465
Greggs,Greggs,DH7 8NN,Durham,,54.750988,-1.630628
Greggs,Greggs,DL5 6DX,Durham,,54.6068267822266,-1.56387805938721
Greggs,Greggs,SR7 7DR,Durham,,54.836357,-1.331234
Greggs,Greggs,DH1 4SH,Durham,,54.776588,-1.580196
Greggs,Greggs,NE46 4DL,Northumberland,,54.979445,-2.090123
Greggs,Greggs,NE23 1WE,Northumberland,,55.0973320007324,-1.60796594619751
Greggs,Greggs,NE24 1LP,Northumberland,,55.127499,-1.509297
Greggs,Greggs,NE61 1NT,Northumberland,,55.167637,-1.689047
Greggs,Greggs,TD15 1BN,Northumberland,,55.770176,-2.00393
Greggs,Greggs,NE63 9UJ,Northumberland,,55.183104,-1.571132
Greggs,Greggs,NE46 1LU,Northumberland,,54.97054,-2.100991
Greggs,Greggs,NE66 1JD,Northumberland,,55.413908,-1.706451
Greggs,Greggs,NE42 5AA,Northumberland,,54.961216,-1.849375
Greggs,Greggs,NE24 5JP,Northumberland,,55.130258,-1.541461
Greggs,Greggs,NE23 6UR,Northumberland,,55.31895446777344,-2.05172109603882
Greggs,Greggs,NE22 5TN,Northumberland,,55.131108,-1.593834
Greggs,Greggs,NE63 0TQ,Northumberland,,55.169909,-1.557396
Greggs,Greggs Seaton Burn,NE13 6BP,Northumberland,,55.066499,-1.633947
Greggs,Greggs,SY11 2SU,Shropshire,,52.858579,-3.055484
Greggs,Greggs,WV16 4DB,Shropshire,,52.535887,-2.420303
Greggs,Greggs,TF9 1PH,Shropshire,,52.904664,-2.485537
Greggs,Greggs,SY1 1DN,Shropshire,,52.708306,-2.753532
Greggs,Greggs,SY2 6FG,Shropshire,,52.6912574768066,-2.71904397010803
Greggs,Greggs,SY3 0DA,Shropshire,,52.681852,-2.761567
Greggs,Greggs,SY13 1JZ,Shropshire,,52.966533,-2.705294
Greggs,Greggs,SY11 4JA,Shropshire,,52.849293,-3.026688
Greggs,Greggs,SY1 3AH,Shropshire,,52.736936,-2.72661
Greggs,Greggs,SY7 9PX,Shropshire,,52.4403463,-2.836467
Greggs,Greggs Props Complex,WV7 3ED,Shropshire,,52.645534,-2.307063
Greggs,Greggs,SN8 1LT,Wiltshire,,51.419818,-1.732952
Greggs,Greggs,BA12 9BT,Wiltshire,,51.205322,-2.180061
Greggs,Greggs,SP1 2AG,Wiltshire,,51.067616,-1.796192
Greggs,Greggs,SN15 3EU,Wiltshire,,51.458566,-2.11505
Greggs,Greggs,SP1 1BD,Wiltshire,,51.069444,-1.797868
Greggs,Greggs,SN12 6JY,Wiltshire,,51.373201,-2.138296
Greggs,Greggs,SN14 6UY,Wiltshire,,51.478997,-2.130005
Greggs,Greggs,SN12 6AD,Wiltshire,,0.0,0.0
Greggs,Greggs,SN14 6LB,Wiltshire,,51.5118064880371,-2.15824198722839
Greggs,Greggs,BA14 8AT,Wiltshire,,51.3201586,-2.2094247
Greggs,Greggs,SN14 6LB,Wiltshire,,51.511808,-2.158241
Greggs,Greggs,SN5 8UB,Wiltshire,,51.548654,-1.853686
Greggs,Greggs,BA14 8FS,Wiltshire,,0.0,0.0
Greggs,Greggs,BA12 6AQ,Wiltshire,,51.101401,-2.185926
Greggs,Greggs Amesbury,SP4 7AS,Wiltshire,,51.179857,-1.782336
Greggs,Greggs Amesbury Distribution Centre,,Wiltshire,,51.1769084172886,-1.75217109646046
Greggs,Greggs in Forecourt,SN14 6LB,Wiltshire,,51.511808,-2.158241
Greggs,Greggs Sandwiches,SN10 1JG,Wiltshire,,51.352783,-1.995324
Greggs,Tidworth Greggs,SP9 7LA,Wiltshire,,51.238889,-1.664426
Greggs,Warminster Greggs,BA12 7RU,Wiltshire,,51.21786,-2.199998
Greggs,GREGGS,AB11 5BJ,Aberdeen City,,57.147,-2.096566
Greggs,GREGGS,AB11 5RG,Aberdeen City,,57.143568,-2.096921
Greggs,GREGGS,AB10 1TR,Aberdeen City,,57.1435066,-2.1104408
Greggs,GREGGS,AB12 3DP,Aberdeen City,,57.1296501159668,-2.09176301956177
Greggs,GREGGS,AB25 1BS,Aberdeen City,,57.150805,-2.101964
Greggs,GREGGS [UNIT 10],AB11 6BE,Aberdeen City,,57.145353,-2.100677
Greggs,Greggs,AB39 2BA,Aberdeenshire,,56.964505,-2.208743
Greggs,Greggs,AB51 3PU,Aberdeenshire,,57.283863067627,-2.37509799003601
Greggs,Greggs PLC,,Aberdeenshire,,0.0,0.0
Greggs,Greggs,DD8 3AE,Angus,,56.644719,-2.88898
Greggs,Greggs,DD11 1HY,Angus,,56.560856,-2.583228
Greggs,Greggs of Scotland,DD10 8LR,Angus,,56.712462,-2.467859
Greggs,Greggs,KA1 1LT,East Ayrshire,,55.610138,-4.495576
Greggs,Greggs Plc,KA18 1LE,East Ayrshire,,55.45399,-4.263643
Greggs,Greggs of Rutherglen,KA21 5ED,North Ayrshire,,55.633052,-4.787094
Greggs,Greggs of Rutherglen,KA30 8AL,North Ayrshire,,55.793863,-4.868766
Greggs,Greggs Plc,KA20 3EG,North Ayrshire,,55.6485117725327,-4.73089672610093
Greggs,Greggs Plc,KA12 8BB,North Ayrshire,,0.0,0.0
Greggs,"Greggs Plc.,",KA13 6AG,North Ayrshire,,55.654075,-4.697936
Greggs,Greggs,KA7 1RB,South Ayrshire,,55.4603522,-4.6288333
Greggs,Greggs,KA10 6EA,South Ayrshire,,55.544163,-4.662876
Greggs,Greggs,No Postcod,South Ayrshire,,0.0,0.0
Greggs,Greggs,KA9 1JS,South Ayrshire,,55.499436,-4.610606
Greggs,Greggs Of Scotland,KA26 9BS,South Ayrshire,,55.2415274,-4.8551435
Greggs,Greggs Plc,KA8 9BF,South Ayrshire,,55.479791,-4.592656
Greggs,Greggs,EH45 8AG,Scottish Borders,,55.651705,-3.188942
Greggs,Greggs,TD5 7HW,Scottish Borders,,55.598933,-2.433547
Greggs,Greggs,TD9 9EE,Scottish Borders,,55.4230214,-2.7858534
Greggs,Greggs,TD1 3AF,Scottish Borders,,55.6152391,-2.805794
Greggs,Greggs,FK10 1JE,Clackmannanshire,,56.1151657104492,-3.79175400733948
Greggs,Greggs,G82 1LF,West Dunbartonshire,,55.943259,-4.571872
Greggs,Greggs,G83 0NX,West Dunbartonshire,,55.987161,-4.581586
Greggs,Greggs,G82 1RB,West Dunbartonshire,,55.943734,-4.560724
Greggs,Greggs,G81 2RR,West Dunbartonshire,,55.904646,-4.404245
Greggs,Greggs,G82 2TZ,West Dunbartonshire,,55.935402,-4.516251
Greggs,Greggs,G81 5NZ,West Dunbartonshire,,55.924105,-4.401913
Greggs,Greggs,G81 1EA,West Dunbartonshire,,55.9019088745117,-4.40489196777344
Greggs,Greggs,DG11 2JH,Dumfries and Galloway,,55.1212,-3.355934
Greggs,Greggs PLC,DG1 1DJ,Dumfries and Galloway,,55.069809,-3.612715
Greggs,Greggs PLC,DG2 0NU,Dumfries and Galloway,,55.0791397094727,-3.62065696716309
Greggs,Greggs PLC,DG12 6ED,Dumfries and Galloway,,54.987183,-3.260093
Greggs,Greggs PLC,DG1 2BN,Dumfries and Galloway,,55.0677701,-3.6103729
Greggs,Greggs,G62 6PB,East Dunbartonshire,,55.9415748,-4.3178286
Greggs,Greggs Of Rutherglen,G64 1DH,East Dunbartonshire,,55.9071673,-4.2065786
Greggs,Greggs,DD3 7SE,Dundee City,,56.474845,-2.980768
Greggs,Greggs,DD2 3WT,Dundee City,,56.481187,-3.0154571
Greggs,Greggs,DD5 2AG,Dundee City,,56.467309,-2.874669
Greggs,Greggs,DD1 2HS,Dundee City,,56.463424,-2.968285
Greggs,Greggs,DD1 1SD,Dundee City,,56.461186,-2.969526
Greggs,Greggs,DD1 1UF,Dundee City,,56.460119,-2.972761
Greggs,Greggs,EH28 8PJ,Edinburgh (City of),,55.93283,-3.412053
Greggs,Greggs,EH3 9BG,Edinburgh (City of),,55.945454,-3.205775
Greggs,Greggs,EH5 2LY,Edinburgh (City of),,55.975224,-3.238238
Greggs,Greggs,EH7 6EH,Edinburgh (City of),,55.961621,-3.151974
Greggs,Greggs,EH12 5EB,Edinburgh (City of),,55.946748,-3.216704
Greggs,Greggs,EH12 9EB,Edinburgh (City of),,55.930778,-3.300525
Greggs,Greggs,EH2 2PR,Edinburgh (City of),,55.953215,-3.19495
Greggs,Greggs,EH16 4GP,Edinburgh (City of),,0.0,0.0
Greggs,Greggs,EH2 4SH,Edinburgh (City of),,55.950215,-3.208597
Greggs,Greggs,EH1 3JU,Edinburgh (City of),,55.957183,-3.187913
Greggs,Greggs,EH14 2SW,Edinburgh (City of),,55.915388,-3.284889
Greggs,Greggs,EH6 8SD,Edinburgh (City of),,55.964253,-3.176835
Greggs,GREGGS,EH1 2QP,Edinburgh (City of),,55.945674,-3.191483
Greggs,Greggs,EH4 4QR,Edinburgh (City of),,55.9710426330566,-3.25265288352966
Greggs,Greggs,EH6 6AD,Edinburgh (City of),,55.971574,-3.171321
Greggs,Greggs,EH16 5PB,Edinburgh (City of),,55.927167,-3.163803
Greggs,Greggs,EH17 8PL,Edinburgh (City of),,55.9034156799316,-3.14013910293579
Greggs,Greggs,EH8 9DT,Edinburgh (City of),,55.945885,-3.184476
Greggs,Greggs,EH11 3DQ,Edinburgh (City of),,55.933311,-3.259999
Greggs,GREGGS,EH8 9JD,Edinburgh (City of),,55.941399,-3.181025
Greggs,Greggs,EH6 6JJ,Edinburgh (City of),,55.980067,-3.179688
Greggs,Greggs,EH14 1RA,Edinburgh (City of),,55.930048,-3.245039
Greggs,Greggs,EH11 4BY,Edinburgh (City of),,55.9259147644043,-3.29534888267517
Greggs,Greggs,EH15 3RD,Edinburgh (City of),,55.934346,-3.103382
Greggs,Greggs Of Edinburgh,EH7 5RH,Edinburgh (City of),,55.959173,-3.171475
Greggs,Greggs of Edinburgh,EH12 7SD,Edinburgh (City of),,55.94258,-3.282187
Greggs,Greggs of Edinburgh,EH15 1EX,Edinburgh (City of),,55.952668,-3.113336
Greggs,Greggs of Edinburgh,EH10 4DF,Edinburgh (City of),,55.936107,-3.209647
Greggs,GREGGS OF EDINBURGH,EH6 6BS,Edinburgh (City of),,55.972028,-3.172713
Greggs,GREGGS OF EDINBURGH,EH7 4AA,Edinburgh (City of),,55.958465,-3.183563
Greggs,Greggs of Edinburgh,EH4 5BZ,Edinburgh (City of),,55.965617,-3.272856
Greggs,GREGGS OF EDINBURGH,EH1  1LL,Edinburgh (City of),,55.949089,-3.1868
Greggs,Greggs of Edinburgh,EH11 2PN,Edinburgh (City of),,55.937653,-3.234061
Greggs,Greggs of Edinburgh,EH4 1HU,Edinburgh (City of),,55.958837,-3.210933
Greggs,Greggs of Edinburgh,EH10 5HY,Edinburgh (City of),,55.925621,-3.209657
Greggs,Greggs of Edinburgh,EH2 3DT,Edinburgh (City of),,55.952127,-3.201499
Greggs,Greggs of Scotland,EH1 1BQ,Edinburgh (City of),,55.952639,-3.191312
Greggs,Greggs,FK3 8AZ,Falkirk,,56.018971,-3.722766
Greggs,Greggs,FK4 1AA,Falkirk,,56.000982,-3.887145
Greggs,Greggs,FK5 4HD,Falkirk,,56.026165,-3.816947
Greggs,Greggs,FK1 4EG,Falkirk,,56.003312,-3.813372
Greggs,Greggs,FK1 1DU,Falkirk,,55.998675,-3.781933
Greggs,Greggs,FK1 1DG,Falkirk,,56.000256,-3.786929
Greggs,Greggs PLC,FK6 6EL,Falkirk,,0.0,0.0
Greggs,Greggs PLC,FK2 7TA,Falkirk,,56.015837,-3.792606
Greggs,Greggs,KY16 9PD,Fife,,56.340124,-2.797603
Greggs,Greggs,KY1 1JT,Fife,,56.111619,-3.157144
Greggs,Greggs,KY7 5NU,Fife,,56.195814,-3.173796
Greggs,Greggs,KY7 5NN,Fife,,56.196589,-3.171579
Greggs,Greggs,KY4 9QJ,Fife,,56.109884,-3.342662
Greggs,Greggs,KY11 1NL,Fife,,56.031032,-3.398048
Greggs,Greggs,KY1 1NX,Fife,,56.109784,-3.159163
Greggs,Greggs,KY15 5HA,Fife,,56.319106,-3.012016
Greggs,Greggs,KY8 4NE,Fife,,56.194481,-2.997113
Greggs,Greggs,KY12 7DP,Fife,,56.071608,-3.460371
Greggs,Greggs,KY7 5PS,Fife,,56.198345,-3.173164
Greggs,Greggs,KY11 3AU,Fife,,56.061877,-3.445067
Greggs,Greggs,KY12 7QA,Fife,,56.072399,-3.459598
Greggs,Greggs,KY11 8JZ,Fife,,56.061623,-3.405628
Greggs,Greggs,KY11 2RP,Fife,,56.037098,-3.425457
Greggs,Greggs PLC,KY11 9AB,Fife,,0.0,0.0
Greggs,Greggs PLC,KY2 6QL,Fife,,56.1353759765625,-3.19861698150635
Greggs,Fullarton Greggs,G32 8XQ,Glasgow City,,55.838797,-4.17421
Greggs,Greggs,G13 1HQ,Glasgow City,,55.889828,-4.323619
Greggs,Greggs,G11 6RZ,Glasgow City,,55.870951,-4.308552
Greggs,Greggs,,Glasgow City,,0.0,0.0
Greggs,Greggs,G32 8UW,Glasgow City,,55.843548,-4.173389
Greggs,Greggs,G1 1RF,Glasgow City,,55.861376,-4.24462
Greggs,Greggs,G42 9EG,Glasgow City,,55.825496,-4.257464
Greggs,Greggs,G11 7BN,Glasgow City,,55.876145,-4.323824
Greggs,Greggs,G42 9JT,Glasgow City,,55.826083,-4.265146
Greggs,Greggs,G34 9DY,Glasgow City,,55.871218,-4.138074
Greggs,Greggs,G33 2QZ,Glasgow City,,55.870611,-4.186426
Greggs,Greggs,G1 3RS,Glasgow City,,55.860794,-4.257722
Greggs,Greggs,G1 2PF,Glasgow City,,55.861051,-4.255004
Greggs,Greggs,G69 6HB,Glasgow City,,55.851239,-4.132919
Greggs,Greggs,G11 6XE,Glasgow City,,55.870769,-4.299989
Greggs,Greggs,G69 6SL,Glasgow City,,55.850027,-4.111493
Greggs,Greggs,G31 1DL,Glasgow City,,55.858642,-4.217936
Greggs,Greggs,G1 2LL,Glasgow City,,55.862207,-4.253218
Greggs,Greggs,G51 4DJ,Glasgow City,,55.855134,-4.331806
Greggs,Greggs,G3 8ND,Glasgow City,,55.86433,-4.283834
Greggs,Greggs,G42 8RW,Glasgow City,,55.835979,-4.26462
Greggs,Greggs,G5 8RJ,Glasgow City,,55.853408,-4.278129
Greggs,Greggs,G12 8SY,Glasgow City,,55.87245,-4.281658
Greggs,Greggs,G2 3HQ,Glasgow City,,55.865326,-4.263947
Greggs,Greggs,,Glasgow City,,55.8649334,-4.2601832
Greggs,Greggs,G1 2FF,Glasgow City,,55.8638456,-4.251378
Greggs,Greggs,G21 1TS,Glasgow City,,55.883381,-4.228061
Greggs,Greggs,G2 3NW,Glasgow City,,55.865443,-4.2519979
Greggs,Greggs,G51 3JW,Glasgow City,,55.862557,-4.312768
Greggs,Greggs,G32 8YG,Glasgow City,,55.8359325,-4.1593137
Greggs,Greggs,G20 9SH,Glasgow City,,55.887041,-4.286288
Greggs,Greggs Of Rutherglen,G52 3JL,Glasgow City,,55.845612,-4.35467
Greggs,Greggs Of Rutherglen,G32 7PB,Glasgow City,,55.851912,-4.169989
Greggs,Greggs Of Rutherglen,G12 8TL,Glasgow City,,55.875953,-4.293342
Greggs,Greggs Of Rutherglen,G2 1NF,Glasgow City,,55.862669,-4.255482
Greggs,Greggs Of Rutherglen,G22 5ER,Glasgow City,,55.883304,-4.253993
Greggs,Greggs Of Rutherglen,G45 9AA,Glasgow City,,55.806689,-4.235118
Greggs,Greggs Of Rutherglen,G41 3YN,Glasgow City,,55.829295,-4.281972
Greggs,Greggs Of Scotland,G32 0PW,Glasgow City,,55.854482,-4.158789
Greggs,Greggs Of Scotland,G44 5EH,Glasgow City,,55.810488,-4.245152
Greggs,Greggs Of Scotland,G31 3AD,Glasgow City,,55.86475,-4.222583
Greggs,Greggs Of Scotland,G53 6AG,Glasgow City,,55.822898,-4.342073
Greggs,Greggs Of Scotland PLC,G2 1DY,Glasgow City,,55.860453,-4.250847
Greggs,Greggs PLC,G52 3SX,Glasgow City,,55.8453274,-4.3448911
Greggs,Greggs PLC,G15 7TG,Glasgow City,,55.91071,-4.372393
Greggs,Greggs Plc,G34 9DY,Glasgow City,,55.8720732,-4.1378921
Greggs,Greggs Plc,G11 6RZ,Glasgow City,,55.870951,-4.308552
Greggs,Greggs PLC,G33 4RJ,Glasgow City,,55.858026,-4.135416
Greggs,Greggs PLC,G40 1NE,Glasgow City,,55.849619,-4.227375
Greggs,Greggs PLC,G34 9DT,Glasgow City,,55.8685150146484,-4.1222939491272
Greggs,Greggs The Bakers Plc,G2 3DE,Glasgow City,,55.864846,-4.256359
Greggs,Greggs,PA15 1UA,Inverclyde,,55.949431,-4.761273
Greggs,Greggs,PA14 5JQ,Inverclyde,,55.934277,-4.689769
Greggs,Greggs PLC,PA15 1RH,Inverclyde,,55.948682,-4.758592
Greggs,Duncansfield Greggs,G65 9AE,North Lanarkshire,,55.977221,-4.0672791
Greggs,Greggs,ML4 1AF,North Lanarkshire,,55.8181744,-4.0254717
Greggs,Greggs,ML1 4GN,North Lanarkshire,,55.806726,-3.964124
Greggs,Greggs,G67 1JW,North Lanarkshire,,55.946431,-3.988377
Greggs,Greggs,ML1 1LY,North Lanarkshire,,55.790895,-3.991226
Greggs,Greggs,ML1 1RB,North Lanarkshire,,55.789879,-3.991222
Greggs,Greggs,ML6 6DB,North Lanarkshire,,55.865899,-3.978458
Greggs,Greggs,ML2 7AU,North Lanarkshire,,55.775093,-3.922528
Greggs,Greggs,ML4 3LX,North Lanarkshire,,55.826584,-4.046407
Greggs,Greggs,ML5 3SQ,North Lanarkshire,,55.8576354980469,-4.02295303344727
Greggs,Greggs,G67 1AX,North Lanarkshire,,55.9511108398438,-3.98401999473572
Greggs,Greggs,ML2 2UA,North Lanarkshire,,0.0,0.0
Greggs,Greggs,ML6  0DT,North Lanarkshire,,55.868257,-3.983261
Greggs,Greggs,G71 6BP,North Lanarkshire,,55.830889,-4.075326
Greggs,Greggs of Scotland,ML6 8SW,North Lanarkshire,,55.84356,-3.948476
Greggs,Greggs of Scotland,ML2 8JZ,North Lanarkshire,,55.789951,-3.913148
Greggs,Greggs Plc,ML5 3BQ,North Lanarkshire,,55.862205,-4.025955
Greggs,Greggs,ML11 7EX,South Lanarkshire,,55.6733665466309,-3.77911806106567
Greggs,Greggs,G72 0BP,South Lanarkshire,,55.7790069580078,-4.09795379638672
Greggs,Greggs,G73 2HY,South Lanarkshire,,55.828088,-4.216803
Greggs,Greggs,G74 1LW,South Lanarkshire,,55.760039,-4.179881
Greggs,Greggs,G73 2HY,South Lanarkshire,,55.828087,-4.216802
Greggs,Greggs,G71 7EP,South Lanarkshire,,55.819121,-4.08249
Greggs,Greggs,ML3 7AW,South Lanarkshire,,55.775579,-4.033623
Greggs,Greggs,G74 4HX,South Lanarkshire,,55.764889,-4.172468
Greggs,Greggs,G72 7EL,South Lanarkshire,,55.818881,-4.168645
Greggs,Greggs,ML10 6AQ,South Lanarkshire,,55.676514,-4.066378
Greggs,Greggs,G74 3BQ,South Lanarkshire,,55.772361,-4.156987
Greggs,Greggs,G72 0QD,South Lanarkshire,,55.7924375,-4.0887226
Greggs,Greggs,ML3 6AH,South Lanarkshire,,55.774379,-4.037132
Greggs,Greggs Bakers,G74 1LB,South Lanarkshire,,55.76057,-4.175814
Greggs,Greggs Of Rutherglen,ML9 1DZ,South Lanarkshire,,55.740306,-3.974008
Greggs,Greggs Of Scotland,ML8 4AT,South Lanarkshire,,55.733665,-3.837303
Greggs,Greggs of Scotland,ML3 7QQ,South Lanarkshire,,55.76228,-4.043785
Greggs,Greggs Plc,G73 2HP,South Lanarkshire,,55.828136,-4.2116
Greggs,Greggs PLC,G74 5QD,South Lanarkshire,,55.760477,-4.228106
Greggs,Greggs PLC,G72 8PE,South Lanarkshire,,55.809271,-4.178404
Greggs,Greggs PLC,G74 4UN,South Lanarkshire,,55.784252166748,-4.16855382919312
Greggs,Greggs staff canteen,G72 7NA,South Lanarkshire,,55.8234181,-4.1578016
Greggs,Greggs,EH21 7EA,East Lothian,,55.942512,-3.050106
Greggs,Greggs,EH32 9AX,East Lothian,,55.959143,-2.984966
Greggs,Greggs,EH41 3JE,East Lothian,,55.9558972,-2.7775263
Greggs,Greggs,EH33 1HQ,East Lothian,,55.944321,-2.952551
Greggs,Greggs,EH39 4HQ,East Lothian,,56.058688,-2.718347
Greggs,Greggs,EH52 5BQ,West Lothian,,55.935188,-3.446508
Greggs,Greggs,EH52 5AE,West Lothian,,55.934106,-3.470337
Greggs,Greggs,EH49 7HU,West Lothian,,55.977258,-3.594542
Greggs,Greggs,EH48 1PW,West Lothian,,55.902308,-3.641482
Greggs,Greggs,EH54 6TR,West Lothian,,55.896815,-3.540126
Greggs,Greggs Cafe,EH54 6NB,West Lothian,,55.884198,-3.512623
Greggs,Greggs Plc,EH47 0QB,West Lothian,,55.8663864135742,-3.68571996688843
Greggs,Greggs Plc,EH54 6HR,West Lothian,,55.883765,-3.515004
Greggs,Greggs,EH26 8HN,Midlothian,,55.827414,-3.221819
Greggs,Greggs Bakers,EH22 1HU,Midlothian,,55.893719,-3.070311
Greggs,Greggs Bakers,EH19 2AA,Midlothian,,55.875292,-3.106565
Greggs,Greggs The Bakers,EH20 9RG,Midlothian,,55.878418,-3.148901
Greggs,Greggs,PH2 8PA,Perth and Kinross,,56.395034,-3.430756
Greggs,Greggs,PH1 5EJ,Perth and Kinross,,56.396189,-3.432743
Greggs,Greggs of Scotland,PH16 5BL,Perth and Kinross,,56.703111,-3.733544
Greggs,Greggs PLC,PH1 5XA,Perth and Kinross,,56.399793,-3.442649
Greggs,Greggs PLC,PH1 3TW,Perth and Kinross,,56.417897,-3.47561
Greggs,Greggs The Bakers,G78 1SL,East Renfrewshire,,55.8011506,-4.3879813
Greggs,Greggs The Bakers,G77 6EY,East Renfrewshire,,55.7732975,-4.3337228
Greggs,Greggs The Bakers,G46 7RY,East Renfrewshire,,55.8079299926758,-4.31575107574463
Greggs,Greggs The Bakers,G76 7BG,East Renfrewshire,,55.7900466918945,-4.27712297439575
Greggs,Greggs,PA1 3PD,Renfrewshire,,55.847058,-4.408547
Greggs,Greggs,PA4 8QL,Renfrewshire,,55.878805,-4.385843
Greggs,Greggs,PA1 2AB,Renfrewshire,,55.845724,-4.469458
Greggs,Greggs,G51 4BS,Renfrewshire,,55.875948,-4.36482
Greggs,Greggs,PA3 3DW,Renfrewshire,,55.848429,-4.487283
Greggs,Greggs of Scotland,PA5 8AN,Renfrewshire,,55.836838,-4.511891
Greggs,Greggs of Scotland,PA2 6NE,Renfrewshire,,55.83497,-4.423626
Greggs,Greggs of Scotland,PA1 1BL,Renfrewshire,,55.846037,-4.424379
Greggs,Greggs of Scotland,PA8 7AA,Renfrewshire,,55.903881,-4.448532
Greggs,Greggs of Scotland,G52 4LY,Renfrewshire,,55.861418,-4.367037
Greggs,Greggs of Scotland,PA1 2AF,Renfrewshire,,55.84456,-4.424527
Greggs,Greggs,,Stirling,,0.0,0.0
Greggs,Greggs,,Stirling,,0.0,0.0
Greggs,Greggs,,Stirling,,0.0,0.0
Greggs,Greggs,,Stirling,,0.0,0.0
Greggs,GREGGS,BT20 5AE,Ards and North Down,,54.661218,-5.668184
Greggs,Greggs,BT62 1HX,"Armagh City, Banbridge and Craigavon",,54.423900604248,-6.44362115859985
Greggs,Greggs,BT40 1JE,Mid and East Antrim,,54.8514213562012,-5.81754112243652
Greggs,Greggs,BT43 6UF,Mid and East Antrim,,54.869078,-6.275022
Greggs,Greggs,BT52 1AW,Causeway Coast and Glens,,55.1314849853516,-6.66871309280396
Greggs,Greggs,BT1 6JH,Belfast City,,54.596511,-5.931969
Greggs,Greggs,BT3 9LZ,Belfast City,,54.62928,-5.912186
Greggs,Greggs,BT1 5DA,Belfast City,,54.598614,-5.928349
Greggs,Greggs,BT1 1FD,Belfast City,,54.600404,-5.930564
Greggs,Greggs,BT7 1JR,Belfast City,,54.587272,-5.932406
Greggs,Greggs,BT11 9AE,Belfast City,,54.581283,-5.978341
Greggs,Greggs,BT13 2JF,Belfast City,,54.59983,-5.94805
Greggs,Greggs,BT12 6HU,Belfast City,,54.580289,-5.965722
Greggs,Greggs,BT28 1AN,Lisburn and Castlereagh City,,54.51077,-6.048472
Greggs,GREGGS,BT35 8HJ,"Newry, Mourne and Down",,54.172178,-6.341266
Greggs,Greggs PLC,BT79 7AQ,Fermanagh and Omagh,,54.6026268005371,-7.30371379852295
Greggs,Greggs,BS1 3JL,Bristol,,51.458519,-2.590514
Greggs,Greggs,BS1 3DT,Bristol,,51.457034,-2.590624
Greggs,Greggs,BS16 3UP,Bristol,,51.480435,-2.529409
Greggs,Greggs,BS1 4UL,Bristol,,51.45358,-2.598208
Greggs,Greggs,BS3 4JD,Bristol,,51.442002,-2.597509
Greggs,Greggs,BS1 3XD,Bristol,,51.456759,-2.589872
Greggs,Greggs,BS1 6AH,Bristol,,51.451529,-2.587661
Greggs,Greggs,BS4 5NL,Bristol,,51.4308967590332,-2.54177093505859
Greggs,Greggs Bakery,BS11 0QE,Bristol,,51.50137,-2.658665
Greggs,Greggs Bakery,BS1 3JX,Bristol,,51.45859,-2.587133
Greggs,Greggs Bakery,BS10 7DR,Bristol,,51.509446,-2.620481
Greggs,Greggs Bakery,BS5 9HL,Bristol,,51.459486,-2.554557
Greggs,Greggs Bakery,BS10 6AT,Bristol,,51.503732,-2.60225
Greggs,Greggs Bakery,BS4 2QU,Bristol,,51.434434,-2.568021
Greggs,Greggs Bakery,BS2 0SP,Bristol,,51.447692,-2.559523
Greggs,Greggs Bakery,BS1 3LH,Bristol,,51.458985,-2.59252
Greggs,Greggs Bakery,BS11 8DG,Bristol,,51.502032,-2.68282
Greggs,Greggs Bakery,BS13 0BE,Bristol,,51.404871,-2.59816
Greggs,Greggs plc,BS16 5LP,South Gloucestershire,,51.48128,-2.505299
Greggs,Greggs plc,BS37 4AS,South Gloucestershire,,51.54043,-2.41236
Greggs,Greggs plc,BS35 2BH,South Gloucestershire,,51.608079,-2.525363
Greggs,Greggs plc,BS37 5QR,South Gloucestershire,,51.543598,-2.438691
Greggs,Greggs plc,BS15 8JX,South Gloucestershire,,51.463102,-2.510668
Greggs,Greggs plc,BS32 8FB,South Gloucestershire,,51.535337,-2.549135
Greggs,Greggs plc,BS7 0SH,South Gloucestershire,,51.502129,-2.579509
Greggs,Greggs,BA1 1AQ,Bath and North East Somerset,,51.378855,-2.359223
Greggs,Greggs,BA1 1EQ,Bath and North East Somerset,,51.38134765625,-2.36142706871033
Greggs,Greggs,BS31 1DX,Bath and North East Somerset,,51.415479,-2.49882
Greggs,Greggs,BA2 3PN,Bath and North East Somerset,,51.377105,-2.378261
Greggs,Greggs,BS48 1RG,North Somerset,,51.4328465,-2.7591298
Greggs,Greggs,BS20 6EH,North Somerset,,51.483127,-2.769218
Greggs,Greggs,BS23 1SL,North Somerset,,51.347383,-2.978215
Greggs,Greggs,BS23 1HE,North Somerset,,51.348865,-2.979467
Greggs,Greggs Ltd,BS21 6NH,North Somerset,,51.435944,-2.852901
Greggs,Greggs,TS24 7RR,Hartlepool,,54.68366,-1.2138
Greggs,Greggs,TS25 2LS,Hartlepool,,54.65519,-1.233616
Greggs,Greggs,TS24 8NA,Hartlepool,,54.69841,-1.218402
Greggs,Greggs,TS25 1JZ,Hartlepool,,54.665255,-1.218031
Greggs,Greggs,TS12 2ZR,Redcar and Cleveland,,0.0,0.0
Greggs,Greggs,TS14 6BG,Redcar and Cleveland,,54.535456,-1.052118
Greggs,Greggs,TS6 9QH,Redcar and Cleveland,,54.570094,-1.16587
Greggs,Greggs,TS10 3FB,Redcar and Cleveland,,54.618014,-1.066384
Greggs,Greggs,TS1 5ES,Middlesbrough,,54.573815,-1.240559
Greggs,Greggs,TS3 6NF,Middlesbrough,,54.570989,-1.213633
Greggs,Greggs,TS5 6HX,Middlesbrough,,54.560545,-1.24317
Greggs,Greggs,TS8 0TJ,Middlesbrough,,54.524272,-1.216153
Greggs,Greggs,TS1 5QL,Middlesbrough,,54.570578,-1.25378
Greggs,Greggs,TS1 2NR,Middlesbrough,,54.5754,-1.23584
Greggs,Greggs,TS2 1DY,Middlesbrough,,54.5813522338867,-1.24077296257019
Greggs,Greggs,TS7 8DU,Middlesbrough,,54.531905,-1.200059
Greggs,Greggs,TS1 1TB,Middlesbrough,,54.577294,-1.238388
Greggs,Greggs,TS18 3TS,Stockton On Tees,,54.546669,-1.320458
Greggs,Greggs,TS18 1RH,Stockton On Tees,,54.565497,-1.314128
Greggs,Greggs,TS23 2ND,Stockton On Tees,,54.607514,-1.292584
Greggs,Greggs,TS18 1AL,Stockton On Tees,,54.562717,-1.312071
Greggs,Greggs,TS20 1AH,Stockton On Tees,,54.586919,-1.310411
Greggs,Greggs,TS23 1PA,Stockton On Tees,,54.5998649597168,-1.29720497131348
Greggs,Greggs,TS17 9JZ,Stockton On Tees,,54.5262107849121,-1.28864300251007
Greggs,Greggs,TS17 9FD,Stockton On Tees,,54.539094,-1.290784
Greggs,Greggs,TS18 2SL,Stockton On Tees,,54.575723,-1.288942
Greggs,Greggs Plc,TS17 7BW,Stockton On Tees,,54.55637,-1.273135
Greggs,Greggs the Bakers,TS19 8JZ,Stockton On Tees,,54.58326,-1.350825
Greggs,Greggs,YO25 6PS,East Riding of Yorkshire,,54.003547,-0.437321
Greggs,Greggs,HU17 0PW,East Riding of Yorkshire,,0.0,0.0
Greggs,Greggs,YO15 2DX,East Riding of Yorkshire,,54.083347,-0.189674
Greggs,Greggs,DN14 5EZ,East Riding of Yorkshire,,53.704854,-0.871746
Greggs,Greggs,YO43 3PN,East Riding of Yorkshire,,53.874104,-0.701541
Greggs,Barton Upon Humber Greggs,DN18 5LQ,North Lincolnshire,,53.682502746582,-0.45050799846649
Greggs,Greggs,DN15 6SB,North Lincolnshire,,53.591893,-0.645586
Greggs,Greggs,DN16 2SN,North Lincolnshire,,53.566454,-0.648724
Greggs,Greggs,DN16 2AW,North Lincolnshire,,53.5750732421875,-0.6550800204277
Greggs,Greggs,DN15 6LP,North Lincolnshire,,53.591158,-0.64975
Greggs,"Blakemore Retail inc Spar, Subway, Greggs, Insomnia",DN37 7LG,North East Lincolnshire,,53.536419,-0.182457
Greggs,Greggs,DN35 8HF,North East Lincolnshire,,53.559174,-0.030964
Greggs,Greggs,DN31 1ED,North East Lincolnshire,,53.565996,-0.086295
Greggs,Greggs Plc,DN31 1UU,North East Lincolnshire,,53.565718,-0.085175
Greggs,Greggs plc,DN31 2TN,North East Lincolnshire,,53.5777549743652,-0.1066389977932
Greggs,Greggs,HU1 3LS,Hull City,,53.7449688,-0.3417271
Greggs,Greggs,HU6 7PY,Hull City,,53.7679091,-0.3352544
Greggs,Greggs,HU2 8PW,Hull City,,53.7459365,-0.342796
Greggs,Greggs,HU7 4EE,Hull City,,53.7867653,-0.3215153
Greggs,Greggs,HU7 3DA,Hull City,,53.795457,-0.3480113
Greggs,Greggs,HU1 3QX,Hull City,,53.7442092895508,-0.34608799219131
Greggs,Greggs,HU2 8LN,Hull City,,53.7454534,-0.3475039
Greggs,Greggs,HU3 4EB,Hull City,,53.7342265,-0.3685748
Greggs,Greggs,YO1 8RR,York,,53.959592,-1.081534
Greggs,Greggs,YO1 9UP,York,,53.958731,-1.079388
Greggs,Greggs,YO10 5JL,York,,53.9506568908691,-1.03298497200012
Greggs,Greggs,YO31 7UL,York,,53.9567527770996,-1.06987702846527
Greggs,Greggs,YO30 4XZ,York,,53.991615,-1.102793
Greggs,Greggs,LU1 2TD,Luton,,51.879428,-0.412789
Greggs,Greggs,LU3 3BH,Luton,,51.916163,-0.470135
Greggs,Greggs Ltd,LU2 7XH,Luton,,51.902632,-0.394688
Greggs,Greggs the Bakers,LU1 2TJ,Luton,,51.87906,-0.415548
Greggs,Greggs,MK9 3BE,Milton Keynes,,52.043218,-0.756388
Greggs,Greggs,MK2 2RU,Milton Keynes,,51.994359,-0.731088
Greggs,Greggs,MK6 4AE,Milton Keynes,,52.0119285583496,-0.74685299396515
Greggs,Greggs,MK1 1BN,Milton Keynes,,52.002851,-0.724788
Greggs,Greggs,MK9 1BE,Milton Keynes,,52.034171,-0.771698
Greggs,Greggs,DE23 3FA,Derby City,,0.0,0.0
Greggs,Greggs,DE1 1SR,Derby City,,52.919541,-1.475662
Greggs,Greggs,DE22 4BG,Derby City,,52.928252,-1.518191
Greggs,Greggs,DE1 2PG,Derby City,,52.919103,-1.472261
Greggs,Greggs,DE1 2DG,Derby City,,52.922376,-1.476624
Greggs,Greggs,DE24 9AA,Derby City,,52.890932,-1.452894
Greggs,Greggs,DE1 2AU,Derby City,,52.921618,-1.474015
Greggs,Greggs plc,DE24 8XL,Derby City,,52.91466,-1.44803
Greggs,Greggs the Bakers Ltd,DE21 4BF,Derby City,,52.938001,-1.4695705
Greggs,Greggs,BH14 9DF,"Bournemouth, Christchurch and Poole",,50.728888,-1.935918
Greggs,Greggs,BH23 1QA,"Bournemouth, Christchurch and Poole",,50.7355728149414,-1.77773904800415
Greggs,Greggs,BH1 1LL,"Bournemouth, Christchurch and Poole",,50.721125,-1.876261
Greggs,Greggs,BH1 4AP,"Bournemouth, Christchurch and Poole",,50.726904,-1.837327
Greggs,Greggs,BH9 2AQ,"Bournemouth, Christchurch and Poole",,50.741909,-1.878701
Greggs,Greggs,BH17 0RA,"Bournemouth, Christchurch and Poole",,50.742051,-1.977198
Greggs,Greggs,BH15 1SR,"Bournemouth, Christchurch and Poole",,50.717735,-1.97966
Greggs,Greggs PLC,BH2 5RH,"Bournemouth, Christchurch and Poole",,50.720439,-1.883104
Greggs,Rossmore Greggs,BH12 3JN,"Bournemouth, Christchurch and Poole",,50.741753,-1.947026
Greggs,Greggs,DL3 9AA,Darlington,,54.533482,-1.578676
Greggs,Greggs,DL1 1PR,Darlington,,54.527209,-1.553508
Greggs,Greggs,DL1 2EE,Darlington,,0.0,0.0
Greggs,Greggs North East,DL3 7QQ,Darlington,,54.524675,-1.555854
Greggs,Greggs North East,DL1 1LT,Darlington,,54.52543,-1.553605
Greggs,Greggs Of Gosforth,DL3 7LL,Darlington,,54.525237,-1.557284
Greggs,Greggs Of Gosforth,DL1 1BA,Darlington,,54.522678,-1.526923
Greggs,Greggs,BN1 4JG,Brighton and Hove,,50.831269,-0.136146
Greggs,Greggs,BN1 1RE,Brighton and Hove,,50.823327,-0.141148
Greggs,Greggs,BN1 2EB,Brighton and Hove,,50.823934,-0.147669
Greggs,Greggs,BN3 5TD,Brighton and Hove,,50.834438,-0.206333
Greggs,Greggs,PO1 1EJ,Portsmouth,,50.7992744445801,-1.0906800031662
Greggs,Greggs,PO5 3QQ,Portsmouth,,50.7860260009766,-1.08784401416779
Greggs,Greggs,PO6 4HG,Portsmouth,,50.849723815918,-1.09536802768707
Greggs,Greggs,PO6 3BZ,Portsmouth,,50.8457412719727,-1.06703698635101
Greggs,Greggs,PO1 1HG,Portsmouth,,50.8015594482422,-1.08830797672272
Greggs,Greggs,PO2 0LN,Portsmouth,,50.8146553039551,-1.0794939994812
Greggs,Greggs,PO1 2SB,Portsmouth,,50.7952117919922,-1.09446203708649
Greggs,Greggs,PO3 5QH,Portsmouth,,50.8210372924805,-1.05314803123474
Greggs,Greggs,PO6 4FG,Portsmouth,,50.8462343,-1.0944008
Greggs,Greggs (Portsmouth Crasswell Street 1711),PO1 1HA,Portsmouth,,50.801342010498,-1.08836901187897
Greggs,Greggs,SO14 7FG,Southampton,,50.906009,-1.404765
Greggs,Greggs,,Southampton,,0.0,0.0
Greggs,Greggs,SO15 3NN,Southampton,,50.92211,-1.4328
Greggs,Greggs,SO14 3HE,Southampton,,50.901927,-1.403253
Greggs,Greggs,SO19 8NE,Southampton,,50.906494,-1.341
Greggs,Greggs,LE3 0PA,Leicester City,,52.627347,-1.150708
Greggs,Greggs,LE1 3YD,Leicester City,,52.636999,-1.131651
Greggs,Greggs,LE1 6FJ,Leicester City,,52.6322784423828,-1.12778401374817
Greggs,Greggs,LE4 1DE,Leicester City,,52.665413,-1.166147
Greggs,Greggs,LE1 5AD,Leicester City,,52.6354446411133,-1.1327600479126
Greggs,Greggs,LE1 3GP,Leicester City,,52.637538,-1.132763
Greggs,Greggs,LE5 4DG,Leicester City,,52.641885,-1.089168
Greggs,Greggs,LE4 5QH,Leicester City,,52.658227,-1.1331016
Greggs,Greggs,LE1 5GF,Leicester City,,52.634932,-1.134174
Greggs,Greggs,LE1 4FR,Leicester City,,52.636297,-1.136467
Greggs,Greggs,ST1 1JZ,Stoke-On-Trent,,53.030725,-2.177465
Greggs,Greggs,ST1 1NS,Stoke-On-Trent,,53.026317,-2.174638
Greggs,Greggs,ST6 1JP,Stoke-On-Trent,,53.047985,-2.18281
Greggs,Greggs,ST6 4NL,Stoke-On-Trent,,53.041488,-2.214074
Greggs,Greggs Ltd,ST3 2HT,Stoke-On-Trent,,52.988505,-2.135635
Greggs,Greggs,SN1 1LL,Swindon,,51.560897,-1.787492
Greggs,Greggs,SN1 1BB,Swindon,,51.561872,-1.7844
Greggs,Greggs,SN5 7YT,Swindon,,51.56305,-1.816421
Greggs,Greggs Plc,,Swindon,,51.560345,-1.785187
Greggs,Greggs Plc,,Swindon,,0.0,0.0
Greggs,Greggs,RG12 1BE,Bracknell Forest,,0.0,0.0
Greggs,Greggs,RG12 1RW,Bracknell Forest,,51.4155216,-0.7690453
Greggs,Greggs,RG14 1AE,West Berkshire,,51.403414,-1.324801
Greggs,Greggs,RG30 3UQ,West Berkshire,,51.426195,-1.034988
Greggs,Greggs,RG30 3UQ,West Berkshire,,51.426195,-1.034988
Greggs,Greggs,RG18 9XX,West Berkshire,,51.45111,-1.308484
Greggs,Greggs,RG14 2BX,West Berkshire,,51.40541,-1.315512
Greggs,Greggs,RG1 2DE,Reading,,51.455656,-0.969873
Greggs,Greggs,RG1 1TT,Reading,,51.456084,-0.975534
Greggs,Greggs,RG2 0EG,Reading,,51.4454193115234,-0.96526902914047
Greggs,Greggs,RG1 1TG,Reading,,51.45633,-0.971887
Greggs,Greggs,RG2 7AZ,Reading,,51.442789,-0.955688
Greggs,Greggs at Broad St Mall,RG1 7QE,Reading,,51.454819,-0.975908
Greggs,Greggs,SL1 1XQ,Slough,,51.509363,-0.593863
Greggs,Greggs PLC,SL1 4RD,Slough,,51.521358,-0.625723
Greggs,Greggs Plc,SL1 1BY,Slough,,51.508114,-0.589477
Greggs,Greggs Plc.,SL1 5QL,Slough,,51.5196,-0.644685
Greggs,Greggs At Eurogarages Shoppenhanger Service Station,SL6 2QJ,Windsor and Maidenhead,,51.509207,-0.732491
Greggs,Greggs Of Twickenham,SL6 1JF,Windsor and Maidenhead,,51.522677,-0.720024
Greggs,Greggs,RG5 3JH,Wokingham,,51.4525798,-0.9051339
Greggs,Greggs,RG40 1AB,Wokingham,,51.410968,-0.835473
Greggs,Greggs,RG6 5TT,Wokingham,,51.4247436523438,-0.93302899599075
Greggs,Greggs at Shinfield Services Station,RG2 9DY,Wokingham,,51.404929,-0.943179
Greggs,Greggs,PE1 1TS,Peterborough City,,52.5738036,-0.2417977
Greggs,Greggs,PE1 1HJ,Peterborough City,,52.571792,-0.24195
Greggs,Greggs,PE2 8AG,Peterborough City,,0.0,0.0
Greggs,Greggs,PE6 7EZ,Peterborough City,,52.6092529296875,-0.32674899697304
Greggs,Greggs,PE2 5TD,Peterborough City,,52.543273,-0.302329
Greggs,Greggs,PE1 1NS,Peterborough City,,52.573923,-0.244389
Greggs,Greggs,WA8 6BJ,Halton,,53.367535,-2.72648
Greggs,Greggs,WA7 1LR,Halton,,53.342573,-2.732469
Greggs,Greggs,WA7 2GZ,Halton,,53.327711,-2.698507
Greggs,Greggs,WA7 5AQ,Halton,,53.339251,-2.731751
Greggs,Greggs,WA1 1QE,Warrington,,53.390088,-2.595054
Greggs,Greggs,WA3 7PG,Warrington,,53.414147,-2.52695
Greggs,Greggs,WA4 6QE,Warrington,,53.379876,-2.587906
Greggs,Greggs,WA1 2QQ,Warrington,,53.390904,-2.589923
Greggs,Greggs,WA2 9SA,Warrington,,53.414896,-2.595069
Greggs,Greggs the Bakers,WA13 0SP,Warrington,,53.359036,-2.504453
Greggs,Greggs,PL1 1DU,Plymouth City,,50.3706106,-4.1411966
Greggs,Greggs,PL1 1RR,Plymouth City,,50.3716735839844,-4.14367198944092
Greggs,Greggs,PL6 8LE,Plymouth City,,50.4030838012695,-4.10170316696167
Greggs,Greggs,TQ2 5EB,Torbay,,50.462703704834,-3.52631592750549
Greggs,Greggs,TQ4 5DN,Torbay,,50.4355049133301,-3.56650304794312
Greggs,Greggs,TQ1 3UT,Torbay,,50.4673500061035,-3.52924203872681
Greggs,Greggs Plc,TQ4 7SF,Torbay,,50.419548034668,-3.58666300773621
Greggs,Greggs,SS1 1JN,Southend-On-Sea,,51.537518,0.71389
Greggs,Greggs,SS0 7EL,Southend-On-Sea,,51.541297,0.695466
Greggs,Greggs,SS1 2NE,Southend-On-Sea,,51.539841,0.713365
Greggs,Greggs,SS1 1HZ,Southend-On-Sea,,51.536224,0.713467
Greggs,Esso Petrol Station - Greggs,RM19 1TS,Thurrock,,51.485961,0.244184
Greggs,Greggs Bakeries,RM20 2ZF,Thurrock,,51.487071,0.283073
Greggs,Greggs Bakeries,RM15 5EF,Thurrock,,51.509894,0.28273
Greggs,Greggs Bakeries,SS17 7LP,Thurrock,,51.524728,0.446655
Greggs,Greggs Bakeries,RM17 6NA,Thurrock,,51.476953,0.322504
Greggs,Greggs Bakeries,RM16 3BG,Thurrock,,51.492301940918,0.27225598692894
Greggs,Greggs Bakeries,RM20 2ZF,Thurrock,,51.487419128418,0.28320398926735
Greggs,Greggs Meads Services,RM19 1TS,Thurrock,,51.485961,0.244184
Greggs,Greggs,HR4 9AB,Herefordshire,,52.056139,-2.717784
Greggs,Greggs,HR8 1DS,Herefordshire,,52.036369,-2.422319
Greggs,Greggs,HR9 7EA,Herefordshire,,51.915206,-2.583026
Greggs,Greggs,HR1 2DB,Herefordshire,,52.05715,-2.714227
Greggs,Greggs,HR2 7JR,Herefordshire,,52.0459594726563,-2.72520303726196
Greggs,Ross Spur Greggs,HR9 7QJ,Herefordshire,,51.928595,-2.562214
Greggs,Greggs,ME7 1AQ,Medway,,51.386545,0.54827
Greggs,Greggs,ME4 4AS,Medway,,51.382578,0.525067
Greggs,Greggs,ME2 4AR,Medway,,51.3955396,0.4959778
Greggs,Greggs,ME8 8PQ,Medway,,51.3398323059082,0.60592800378799
Greggs,Greggs,ME4 4HP,Medway,,51.3837068,0.5255648
Greggs,Greggs,BB1 7DP,Blackburn,,53.749058,-2.483473
Greggs,Greggs,BB1 2EE,Blackburn,,53.730681,-2.452583
Greggs,Greggs,BB3 0AT,Blackburn,,53.713635,-2.481552
Greggs,Greggs,BB1 6AS,Blackburn,,53.749523,-2.48181
Greggs,Greggs Bakers,BB3 1AZ,Blackburn,,53.696207,-2.467934
Greggs,Greggs Bakers,BB1 7JQ,Blackburn,,53.749608,-2.482994
Greggs,Greggs,FY1 4SR,Blackpool,,53.81531,-3.053925
Greggs,Greggs,FY4 4ES,Blackpool,,53.798953,-3.02576
Greggs,Greggs,FY1 1HP,Blackpool,,53.8177,-3.052983
Greggs,Greggs,FY4 4DP,Blackpool,,53.803648,-3.027439
Greggs,Greggs,NG8 5NG,Nottingham City,,52.979431,-1.208208
Greggs,Greggs,NG1 6FB,Nottingham City,,52.95315,-1.151457
Greggs,Greggs,NG1 2AP,Nottingham City,,52.954956,-1.148846
Greggs,Greggs,NG1 7FE,Nottingham City,,52.94797,-1.147346
Greggs,Greggs,NG1 7DD,Nottingham City,,52.95094,-1.149074
Greggs,Greggs,NG6 8QD,Nottingham City,,53.00051,-1.197243
Greggs,Greggs,NG7 3NY,Nottingham City,,52.955943,-1.183257
Greggs,Greggs,,Nottingham City,,0.0,0.0
Greggs,Greggs,NG8 4PH,Nottingham City,,52.964939,-1.227129
Greggs,Greggs,NG1 3GA,Nottingham City,,52.954109,-1.147285
Greggs,Greggs,NG8 5BU,Nottingham City,,52.976067,-1.189267
Greggs,Greggs,NG11 8AA,Nottingham City,,52.903291,-1.17784
Greggs,Greggs,NG1 3QE,Nottingham City,,52.9574221,-1.1476494
Greggs,Greggs,NG2 3GZ,Nottingham City,,52.945647,-1.133224
Greggs,Greggs,TF1 1LU,Telford and Wrekin Council,,52.700684,-2.516995
Greggs,Greggs,TF3 4BQ,Telford and Wrekin Council,,52.676471,-2.44715
Greggs,Greggs,TF2 6EL,Telford and Wrekin Council,,52.695225,-2.451485
Greggs,Greggs,TF3 4DE,Telford and Wrekin Council,,52.674898,-2.446986
Greggs,Greggs,TF10 7AU,Telford and Wrekin Council,,52.768861,-2.379177
Greggs,Greggs,TF7 5BD,Telford and Wrekin Council,,52.636032,-2.450284
Greggs,Greggs,TF1 5GQ,Telford and Wrekin Council,,0.0,0.0
Greggs,Greggs,TF10 7BX,Telford and Wrekin Council,,52.7636909484863,-2.36185193061829
Greggs,Greggs,TF3 5HN,Telford and Wrekin Council,,0.0,0.0
Greggs,Greggs Kiosk,TF3 4BP,Telford and Wrekin Council,,52.65449142456055,-2.73370409011841
Greggs,Greggs Plc,TF3 3BA,Telford and Wrekin Council,,52.675586,-2.42111
